{"type": "FeatureCollection", "features": [{"type": "Feature", "properties": {"name": "Eğirdir", "name_ar": "بحيرة اقيردير", "featurecla": "Lake", "scalerank": 9}, "geometry": {"type": "Polygon", "coordinates": [[[30.860109, 38.280991], [30.893078, 38.274809], [30.855105, 38.175903], [30.856282, 38.150293], [30.8919, 38.143523], [30.92428, 38.122034], [30.93841, 38.092304], [30.966669, 37.990159], [30.918099, 37.928048], [30.898376, 37.868293], [30.876593, 37.852397], [30.855693, 37.861522], [30.84804, 37.877123], [30.79476, 37.931875], [30.77857, 37.940117], [30.7718, 37.959251], [30.777098, 37.980151], [30.812716, 38.016652], [30.852161, 38.076997], [30.843624, 38.111143], [30.813894, 38.138224], [30.774155, 38.148527], [30.755021, 38.171193], [30.751194, 38.195331], [30.752077, 38.223001], [30.773271, 38.25126], [30.809773, 38.270688], [30.860109, 38.280991]]]}}, {"type": "Feature", "properties": {"name": "Beyşehir", "name_ar": "بيشهر", "featurecla": "Lake", "scalerank": 7}, "geometry": {"type": "Polygon", "coordinates": [[[31.465027, 37.60778], [31.456491, 37.628091], [31.459434, 37.669891], [31.451781, 37.687553], [31.45914, 37.717872], [31.41263, 37.800883], [31.353757, 37.869176], [31.324027, 37.91804], [31.318728, 37.95042], [31.394674, 37.966316], [31.418518, 37.977207], [31.527727, 37.886837], [31.561579, 37.86947], [31.593076, 37.817662], [31.602201, 37.781161], [31.626633, 37.79529], [31.646355, 37.795879], [31.654892, 37.77233], [31.702285, 37.70492], [31.706406, 37.676367], [31.582478, 37.641338], [31.526255, 37.635745], [31.515658, 37.628386], [31.5239, 37.604837], [31.508299, 37.60101], [31.485633, 37.61043], [31.465027, 37.60778]]]}}, {"type": "Feature", "properties": {"name": "Lake Albert", "name_ar": "بحيرة ألبرت", "featurecla": "Lake", "scalerank": 0}, "geometry": {"type": "Polygon", "coordinates": [[[31.360528, 2.262302], [31.359645, 2.208139], [31.389376, 2.161041], [31.394674, 2.137492], [31.378484, 2.120713], [31.403799, 2.058308], [31.405271, 2.02475], [31.387440802016364, 2.0], [31.06396109395973, 2.0], [31.111201, 2.031521], [31.152118, 2.045061], [31.201571, 2.106583], [31.236895, 2.116886], [31.24131, 2.1475], [31.294296, 2.190772], [31.325204, 2.262302], [31.367593, 2.309989], [31.450898, 2.348256], [31.4612, 2.359737], [31.474741, 2.408307], [31.474447, 2.358854], [31.467971, 2.335893], [31.412042, 2.3094], [31.372597, 2.279375], [31.360528, 2.262302]]]}}, {"type": "Feature", "properties": {"name": "Lake Chad", "name_ar": "بحيرة تشاد", "featurecla": "Lake", "scalerank": 1}, "geometry": {"type": "Polygon", "coordinates": [[[14.745145, 13.075768], [14.768105, 13.069881], [14.698635, 13.038973], [14.690687, 13.009536], [14.678618, 12.995407], [14.681268, 12.977745], [14.637113, 12.973035], [14.619451, 12.990108], [14.598846, 12.99629], [14.57147, 12.971563], [14.560578, 12.984515], [14.550864, 12.985987], [14.509065, 12.978039], [14.47904, 12.95243], [14.473447, 12.937123], [14.461966, 12.957434], [14.44872, 12.926526], [14.43253, 12.93624], [14.423405, 12.930941], [14.398384, 12.907098], [14.410158, 12.89444], [14.406626, 12.882077], [14.387492, 12.882371], [14.37248, 12.872951], [14.343043, 12.879133], [14.318611, 12.870302], [14.310369, 12.88502], [14.268864, 12.888258], [14.287997, 12.904154], [14.273279, 12.9383], [14.29359, 12.946837], [14.271807, 12.973918], [14.270924, 12.98481], [14.247375, 12.999234], [14.257678, 13.009831], [14.293884, 13.019545], [14.290352, 13.042211], [14.273868, 13.058106], [14.324793, 13.057223], [14.302421, 13.109031], [14.278872, 13.136113], [14.306837, 13.126693], [14.362766, 13.06782], [14.380722, 13.063699], [14.371302, 13.102555], [14.344809, 13.118745], [14.30036, 13.172614], [14.337156, 13.159073], [14.35629, 13.158779], [14.363649, 13.1629], [14.364238, 13.180268], [14.373952, 13.193808], [14.437534, 13.223539], [14.469031, 13.214414], [14.464321, 13.230604], [14.513186, 13.251209], [14.536735, 13.253564], [14.607677, 13.192925], [14.614153, 13.202639], [14.609737, 13.217357], [14.631814, 13.212353], [14.651243, 13.215886], [14.667433, 13.205583], [14.673614, 13.18851], [14.666844, 13.17703], [14.670965, 13.164372], [14.702756, 13.134935], [14.718652, 13.127871], [14.718652, 13.098729], [14.745145, 13.075768]]]}}, {"type": "Feature", "properties": {"name": "Lake Tana", "name_ar": "بحيرة تانا", "featurecla": "Lake", "scalerank": 1}, "geometry": {"type": "Polygon", "coordinates": [[[37.305211, 11.731113], [37.292259, 11.798817], [37.272243, 11.816479], [37.224556, 11.830314], [37.209837, 11.830314], [37.167449, 11.810003], [37.132125, 11.816479], [37.123, 11.825898], [37.120645, 11.858278], [37.101806, 11.85033], [37.086499, 11.803527], [37.06972, 11.830314], [37.039401, 11.841205], [37.026154, 11.879767], [37.010847, 11.889775], [36.991419, 11.88536], [36.987298, 11.905377], [37.000839, 11.935402], [37.015263, 12.170893], [37.068248, 12.242129], [37.137424, 12.28128], [37.15538, 12.27657], [37.167449, 12.258908], [37.175986, 12.220052], [37.196297, 12.207688], [37.212192, 12.220641], [37.251048, 12.207688], [37.275775, 12.215636], [37.294909, 12.264795], [37.3267, 12.289227], [37.347894, 12.285106], [37.360846, 12.268916], [37.378214, 12.285106], [37.394698, 12.29011], [37.429139, 12.289522], [37.478592, 12.309244], [37.498609, 12.303946], [37.538348, 12.236831], [37.559836, 12.180313], [37.591922, 12.138219], [37.601047, 12.11202], [37.598104, 12.075813], [37.580442, 12.015763], [37.566607, 11.99192], [37.573671, 11.981028], [37.560719, 11.96837], [37.538937, 11.920095], [37.49125, 11.905965], [37.511561, 11.858278], [37.505673, 11.838262], [37.471233, 11.823543], [37.456809, 11.810297], [37.450333, 11.76938], [37.42855, 11.74642], [37.429139, 11.721693], [37.409122, 11.690491], [37.406178, 11.661937], [37.38675, 11.631912], [37.369971, 11.624259], [37.3267, 11.632207], [37.293731, 11.663998], [37.29903, 11.697555], [37.33347, 11.693729], [37.344067, 11.70462], [37.305211, 11.731113]]]}}, {"type": "Feature", "properties": {"name": "Lake Balaton", "name_ar": "بالاتون", "featurecla": "Lake", "scalerank": 5}, "geometry": {"type": "Polygon", "coordinates": [[[17.845682, 46.848165], [17.563092, 46.764565], [17.474489, 46.717173], [17.431217, 46.713935], [17.309939, 46.724826], [17.275204, 46.716584], [17.258426, 46.718056], [17.247828, 46.731596], [17.262841, 46.767803], [17.303169, 46.768392], [17.345263, 46.758089], [17.364691, 46.76221], [17.38618, 46.787526], [17.422975, 46.800478], [17.460654, 46.798417], [17.495683, 46.786348], [17.575456, 46.823144], [17.639627, 46.833152], [17.682604, 46.869948], [17.82125, 46.906154], [17.837734, 46.919989], [17.878062, 46.897029], [17.89278, 46.895557], [17.901906, 46.907037], [17.89543, 46.920284], [17.86511, 46.937063], [17.86511, 46.943833], [17.995513, 46.999173], [18.022889, 47.024489], [18.037313, 47.056869], [18.046733, 47.060401], [18.112082, 47.04686], [18.168599, 47.013597], [18.169483, 47.002117], [18.135925, 46.955902], [18.118852, 46.943833], [18.07823, 46.927349], [17.938995, 46.894085], [17.919567, 46.895557], [17.899551, 46.87554], [17.845682, 46.848165]]]}}, {"type": "Feature", "properties": {"name": "Sea of Galilee", "name_ar": "بحيرة طبريا", "featurecla": "Lake", "scalerank": 5}, "geometry": {"type": "Polygon", "coordinates": [[[35.637639, 32.874994], [35.640877, 32.820831], [35.635578, 32.781975], [35.640877, 32.772261], [35.634989, 32.769612], [35.634106, 32.752244], [35.599371, 32.717803], [35.577, 32.720158], [35.566402, 32.756954], [35.549329, 32.769612], [35.517244, 32.820831], [35.52372, 32.852033], [35.554922, 32.880587], [35.591718, 32.897954], [35.613501, 32.895894], [35.637639, 32.874994]]]}}, {"type": "Feature", "properties": {"name": "Lake Sevan", "name_ar": "بحيرة سيفان", "featurecla": "Lake", "scalerank": 5}, "geometry": {"type": "Polygon", "coordinates": [[[45.038746, 40.496375], [44.971925, 40.506973], [44.960445, 40.51963], [44.966627, 40.536998], [45.012547, 40.558192], [45.004894, 40.574382], [44.977518, 40.590572], [44.974869, 40.615299], [44.986349, 40.627368], [45.090848, 40.602052], [45.099973, 40.590278], [45.22184, 40.533465], [45.247156, 40.510211], [45.296903, 40.479302], [45.296314, 40.461346], [45.303085, 40.457519], [45.350772, 40.447805], [45.359603, 40.459286], [45.350477, 40.467528], [45.357836, 40.488722], [45.406112, 40.468117], [45.43967, 40.441624], [45.490889, 40.385695], [45.583614, 40.345367], [45.649257, 40.275014], [45.661326, 40.252642], [45.66633, 40.224677], [45.66162, 40.201128], [45.648668, 40.182583], [45.630123, 40.170809], [45.608046, 40.166688], [45.563008, 40.171692], [45.508551, 40.146082], [45.468223, 40.16345], [45.444085, 40.166099], [45.404346, 40.14461], [45.380502, 40.139312], [45.330461, 40.139312], [45.286012, 40.147554], [45.25422, 40.167865], [45.23332, 40.199656], [45.220663, 40.241751], [45.22655, 40.371859], [45.207122, 40.399824], [45.165911, 40.386283], [45.128527, 40.399824], [45.121462, 40.449572], [45.090848, 40.453987], [45.038746, 40.496375]]]}}, {"type": "Feature", "properties": {"name": "Lake Skadar", "name_ar": "بحيرة سكيوتاري", "featurecla": "Lake", "scalerank": 6}, "geometry": {"type": "Polygon", "coordinates": [[[19.474987, 42.072107], [19.482347, 42.065336], [19.423768, 42.071812], [19.37196, 42.088002], [19.247738, 42.143931], [19.208294, 42.176606], [19.191809, 42.22341], [19.167671, 42.234007], [19.105855, 42.235773], [19.119396, 42.243427], [19.108799, 42.254907], [19.105855, 42.284343], [19.07789, 42.305832], [19.091431, 42.310836], [19.145888, 42.270802], [19.165905, 42.277573], [19.180918, 42.263738], [19.201523, 42.271391], [19.227427, 42.270508], [19.337225, 42.255201], [19.344879, 42.270802], [19.324862, 42.263738], [19.317503, 42.284343], [19.36519, 42.280222], [19.379614, 42.310247], [19.396687, 42.324377], [19.43466, 42.338801], [19.378436, 42.268153], [19.365778, 42.231063], [19.399336, 42.194856], [19.426417, 42.187203], [19.449083, 42.156589], [19.464979, 42.15394], [19.47852, 42.141282], [19.474987, 42.072107]]]}}, {"type": "Feature", "properties": {"featurecla": "Lake", "scalerank": 7}, "geometry": {"type": "Polygon", "coordinates": [[[61.967921, 46.263852], [61.967921, 46.245896], [61.955263, 46.23677], [61.944961, 46.210866], [61.913169, 46.195854], [61.916407, 46.175837], [61.905221, 46.168772], [61.843699, 46.182313], [61.81809, 46.158469], [61.808081, 46.140513], [61.787476, 46.163474], [61.714474, 46.151699], [61.65825, 46.155231], [61.645298, 46.147284], [61.639705, 46.13492], [61.648242, 46.129916], [61.686509, 46.132565], [61.70476, 46.126089], [61.660899, 46.111666], [61.654129, 46.103718], [61.666492, 46.101068], [61.742732, 46.119025], [61.754213, 46.109899], [61.740966, 46.074576], [61.775996, 46.078108], [61.795129, 46.071632], [61.776584, 46.021885], [61.744793, 46.022473], [61.730664, 46.016292], [61.682388, 45.952415], [61.671202, 45.999513], [61.627636, 46.012465], [61.600849, 46.034248], [61.578477, 46.080169], [61.56111, 46.101657], [61.563759, 46.112254], [61.588486, 46.124029], [61.640883, 46.171716], [61.641471, 46.198797], [61.682682, 46.19762], [61.718595, 46.213221], [61.751269, 46.195854], [61.759217, 46.19762], [61.765399, 46.22058], [61.778056, 46.230883], [61.82486, 46.23], [61.87814, 46.25767], [61.934952, 46.256787], [61.967921, 46.263852]]]}}, {"type": "Feature", "properties": {"featurecla": "Lake", "scalerank": 7}, "geometry": {"type": "Polygon", "coordinates": [[[30.491271, 46.149344], [30.501573, 46.135803], [30.480379, 46.104601], [30.451531, 46.083701], [30.43122, 46.083701], [30.366755, 46.175248], [30.341145, 46.201741], [30.302878, 46.223818], [30.192197, 46.252372], [30.125376, 46.305063], [30.108892, 46.338326], [30.117428, 46.357754], [30.128614, 46.373944], [30.218101, 46.396316], [30.240767, 46.382186], [30.233996, 46.362758], [30.243122, 46.341858], [30.274913, 46.313305], [30.294635, 46.310361], [30.309354, 46.374827], [30.327015, 46.343036], [30.330253, 46.302708], [30.339379, 46.289756], [30.407671, 46.259142], [30.418563, 46.238242], [30.412381, 46.207628], [30.421212, 46.194676], [30.491271, 46.149344]]]}}, {"type": "Feature", "properties": {"featurecla": "Lake", "scalerank": 7}, "geometry": {"type": "Polygon", "coordinates": [[[20.80728, 41.093935], [20.811401, 41.020049], [20.786085, 40.955878], [20.791384, 40.934389], [20.713672, 40.90613], [20.659509, 40.910251], [20.650678, 40.920554], [20.63331, 41.016223], [20.635665, 41.033884], [20.654505, 41.067736], [20.636548, 41.07274], [20.63331, 41.081571], [20.654505, 41.17459], [20.669223, 41.179595], [20.722503, 41.17459], [20.748995, 41.16311], [20.77019, 41.12867], [20.81876, 41.11248], [20.80728, 41.093935]]]}}, {"type": "Feature", "properties": {"name": "Lake Adobed", "name_ar": "بحيرة أدوبيد", "featurecla": "Lake", "scalerank": 8}, "geometry": {"type": "Polygon", "coordinates": [[[41.611759, 11.392594], [41.617646, 11.379348], [41.573786, 11.36669], [41.566721, 11.384646], [41.576435, 11.397304], [41.594391, 11.400836], [41.611759, 11.392594]]]}}, {"type": "Feature", "properties": {"name": "Koka Reservoir", "name_ar": "خزان كوكا", "featurecla": "Lake", "scalerank": 8}, "geometry": {"type": "Polygon", "coordinates": [[[39.128208, 8.476623], [39.139983, 8.469264], [39.139983, 8.458078], [39.119083, 8.397439], [39.079933, 8.321493], [39.066686, 8.309424], [38.986619, 8.340921], [38.983676, 8.350635], [39.002221, 8.367414], [38.998394, 8.389197], [39.010463, 8.400383], [39.044903, 8.408036], [39.079344, 8.464849], [39.128208, 8.476623]]]}}, {"type": "Feature", "properties": {"name": "Lake Gemeri", "name_ar": "بحيرة جيمري", "featurecla": "Lake", "scalerank": 8}, "geometry": {"type": "Polygon", "coordinates": [[[41.690354, 11.499154], [41.665922, 11.510046], [41.62736, 11.553906], [41.620001, 11.579515], [41.630598, 11.60748], [41.654736, 11.606597], [41.694181, 11.555672], [41.703011, 11.523292], [41.690354, 11.499154]]]}}, {"type": "Feature", "properties": {"featurecla": "Lake", "scalerank": 9}, "geometry": {"type": "Polygon", "coordinates": [[[21.030408, 40.844903], [21.030113, 40.841959], [21.030113, 40.842253], [21.030408, 40.844903]]]}}, {"type": "Feature", "properties": {"featurecla": "Lake", "scalerank": 9}, "geometry": {"type": "Polygon", "coordinates": [[[21.030996, 40.839898], [21.031291, 40.839604], [21.030408, 40.840193], [21.030996, 40.839898]]]}}, {"type": "Feature", "properties": {"featurecla": "Lake", "scalerank": 9}, "geometry": {"type": "Polygon", "coordinates": [[[21.032174, 40.839604], [21.036, 40.839604], [21.037472, 40.838721], [21.032174, 40.839604]]]}}, {"type": "Feature", "properties": {"featurecla": "Lake", "scalerank": 9}, "geometry": {"type": "Polygon", "coordinates": [[[21.008919, 40.816644], [20.945042, 40.785441], [20.92061, 40.762481], [20.907658, 40.776021], [20.941215, 40.816938], [20.940626, 40.84137], [20.96918, 40.858443], [20.935328, 40.877577], [20.926791, 40.891706], [20.941215, 40.906425], [20.950635, 40.884936], [20.970063, 40.89259], [20.984487, 40.910546], [20.978894, 40.920554], [20.941215, 40.94116], [20.917372, 40.94322], [20.907658, 40.9547], [20.90648, 40.969124], [20.944748, 41.00592], [20.964764, 41.015928], [21.030408, 41.002682], [21.024226, 41.009452], [21.042182, 41.007392], [21.060727, 40.977072], [21.078978, 40.968536], [21.119894, 40.861976], [21.105176, 40.835483], [21.078978, 40.816938], [21.062493, 40.838721], [21.024226, 40.844903], [21.008919, 40.816644]]]}}, {"type": "Feature", "properties": {"featurecla": "Lake", "scalerank": 9}, "geometry": {"type": "Polygon", "coordinates": [[[21.113124, 40.810756], [21.130197, 40.762481], [21.085748, 40.715382], [20.996261, 40.680353], [20.996261, 40.688007], [21.051896, 40.711261], [21.0778, 40.732456], [21.085159, 40.755416], [21.050719, 40.779554], [21.084865, 40.807518], [21.113124, 40.810756]]]}}, {"type": "Feature", "properties": {"name": "Khashm el Girba Dam", "name_ar": "سد خشم القربة", "featurecla": "Reservoir", "scalerank": 8}, "geometry": {"type": "Polygon", "coordinates": [[[35.94937, 14.777193], [35.935829, 14.7507], [35.943189, 14.736276], [35.900506, 14.661508], [35.895207, 14.619708], [35.880489, 14.667984], [35.898445, 14.695654], [35.925821, 14.777487], [35.923466, 14.796915], [35.873424, 14.852256], [35.87519, 14.874922], [35.897856, 14.914955], [35.901683, 14.935561], [35.915224, 14.852256], [35.949959, 14.800742], [35.94937, 14.777193]]]}}, {"type": "Feature", "properties": {"name": "Mingevir Reservoir", "name_ar": "خزان مينجاتشيڤير", "featurecla": "Reservoir", "scalerank": 7}, "geometry": {"type": "Polygon", "coordinates": [[[46.897066, 40.848729], [46.617421, 40.906719], [46.455226, 40.897005], [46.385462, 40.885819], [46.337775, 40.899654], [46.370155, 40.924675], [46.486429, 40.939688], [46.523518, 40.975306], [46.501147, 40.990613], [46.466412, 41.029469], [46.440802, 41.04301], [46.440802, 41.050369], [46.521752, 41.040655], [46.5506, 41.04301], [46.622719, 41.065381], [46.646268, 41.057434], [46.658043, 41.017989], [46.685124, 40.986786], [46.721625, 40.963826], [46.898833, 40.904364], [46.968303, 40.858443], [47.126082, 40.817821], [47.154929, 40.796627], [47.159639, 40.773078], [47.085165, 40.797804], [47.058378, 40.796921], [46.999211, 40.776021], [46.961827, 40.819882], [46.897066, 40.848729]]]}}, {"type": "Feature", "properties": {"name": "Lake Habbaniyah", "name_ar": "بحيرة الحبانية", "featurecla": "Reservoir", "scalerank": 6}, "geometry": {"type": "Polygon", "coordinates": [[[43.416211, 33.252074], [43.304352, 33.304765], [43.287279, 33.321544], [43.295227, 33.34892], [43.306118, 33.355985], [43.338793, 33.360106], [43.356749, 33.375707], [43.370879, 33.444588], [43.42563, 33.416624], [43.433873, 33.367465], [43.449768, 33.361872], [43.481854, 33.329492], [43.49039, 33.335085], [43.51129, 33.327137], [43.529246, 33.35569], [43.570163, 33.33744], [43.59695, 33.292991], [43.580466, 33.247364], [43.548969, 33.211158], [43.512762, 33.207331], [43.500988, 33.194673], [43.466547, 33.183782], [43.428868, 33.201149], [43.426808, 33.209686], [43.437994, 33.222049], [43.432401, 33.231469], [43.44653, 33.252074], [43.416211, 33.252074]]]}}, {"type": "Feature", "properties": {"name": "Buhayrat ath Tharthar", "name_ar": "منخفض الثرثار", "featurecla": "Reservoir", "scalerank": 3}, "geometry": {"type": "Polygon", "coordinates": [[[43.2914, 33.719819], [43.274622, 33.732477], [43.261081, 33.718347], [43.235177, 33.747783], [43.222813, 33.75161], [43.200736, 33.781635], [43.213099, 33.786345], [43.207801, 33.794882], [43.172183, 33.820491], [43.136859, 33.861408], [43.12479, 33.887312], [43.096237, 33.914982], [43.078281, 33.946774], [43.07622, 33.954427], [43.088583, 33.972972], [43.07622, 33.978859], [43.08299, 33.993283], [43.069155, 33.993283], [43.069155, 33.999465], [43.08299, 34.011828], [43.079164, 34.054511], [43.089761, 34.075116], [43.067684, 34.085419], [43.064151, 34.104553], [43.07622, 34.149591], [43.075337, 34.176672], [43.051199, 34.253501], [43.058853, 34.276756], [43.080341, 34.295006], [43.076514, 34.342988], [43.086523, 34.348875], [43.103007, 34.333862], [43.110072, 34.307958], [43.117725, 34.307958], [43.111249, 34.336512], [43.114782, 34.345931], [43.140686, 34.316495], [43.151872, 34.31414], [43.145101, 34.307958], [43.156287, 34.297067], [43.156876, 34.282937], [43.145101, 34.252618], [43.168945, 34.239077], [43.191022, 34.182854], [43.216632, 34.160188], [43.219575, 34.143409], [43.240475, 34.136639], [43.257548, 34.112206], [43.295227, 34.101904], [43.290812, 34.078943], [43.295227, 34.067463], [43.322603, 34.094839], [43.332906, 34.058043], [43.329373, 34.047152], [43.346446, 34.048035], [43.357338, 34.041559], [43.363519, 34.012417], [43.370879, 34.012417], [43.394722, 34.036849], [43.412384, 34.035966], [43.439171, 34.012417], [43.44653, 33.965319], [43.477438, 33.951778], [43.480676, 33.937943], [43.495395, 33.939415], [43.503342, 33.924402], [43.507464, 33.875832], [43.489507, 33.876715], [43.482148, 33.883485], [43.453006, 33.875832], [43.488036, 33.867295], [43.514823, 33.847867], [43.494512, 33.855521], [43.472729, 33.847867], [43.479499, 33.842569], [43.469491, 33.801652], [43.494512, 33.776631], [43.488919, 33.742485], [43.466547, 33.704512], [43.44182, 33.693032], [43.387363, 33.711282], [43.322897, 33.720408], [43.308768, 33.732477], [43.2914, 33.719819]]]}}, {"type": "Feature", "properties": {"name": "Saksak Dagi", "name_ar": "سكسك داجي", "featurecla": "Reservoir", "scalerank": 7}, "geometry": {"type": "Polygon", "coordinates": [[[38.35462, 38.542092], [38.336075, 38.598021], [38.359329, 38.63776], [38.397891, 38.68898], [38.447344, 38.706642], [38.467655, 38.727836], [38.471482, 38.740788], [38.488261, 38.714001], [38.478547, 38.694573], [38.400246, 38.652773], [38.369043, 38.601848], [38.376697, 38.554161], [38.402306, 38.539443], [38.429094, 38.536793], [38.471776, 38.509418], [38.670472, 38.446718], [38.760548, 38.441125], [38.841203, 38.465557], [38.847679, 38.437593], [38.865047, 38.424052], [38.879765, 38.38814], [38.903314, 38.382252], [38.965425, 38.344279], [38.996628, 38.33692], [39.050791, 38.348989], [39.073457, 38.348106], [39.026358, 38.320436], [38.939521, 38.310722], [38.901254, 38.288645], [38.921565, 38.320141], [38.92392, 38.343396], [38.889479, 38.353699], [38.805585, 38.425229], [38.731111, 38.404035], [38.701086, 38.402269], [38.634854, 38.430528], [38.445284, 38.476154], [38.380818, 38.510301], [38.35462, 38.542092]]]}}, {"type": "Feature", "properties": {"name": "Ataturk Barajt", "name_ar": "سد أتاتورك", "featurecla": "Reservoir", "scalerank": 7}, "geometry": {"type": "Polygon", "coordinates": [[[38.603357, 37.54096], [38.601297, 37.492095], [38.57657, 37.4762], [38.545073, 37.483264], [38.519758, 37.47355], [38.558025, 37.423803], [38.540069, 37.417621], [38.490027, 37.444703], [38.336075, 37.483264], [38.316941, 37.497688], [38.316058, 37.517705], [38.273669, 37.573634], [38.255124, 37.584231], [38.247765, 37.596006], [38.257479, 37.61249], [38.277496, 37.614845], [38.308699, 37.600421], [38.323123, 37.566864], [38.340784, 37.572162], [38.349027, 37.60572], [38.339901, 37.679605], [38.364922, 37.657528], [38.389943, 37.650757], [38.401423, 37.660177], [38.439396, 37.653995], [38.458824, 37.622204], [38.421146, 37.627208], [38.415847, 37.608663], [38.384645, 37.598361], [38.373459, 37.5754], [38.367572, 37.554795], [38.374636, 37.50858], [38.387294, 37.495333], [38.418497, 37.524181], [38.485906, 37.544786], [38.492676, 37.567747], [38.505628, 37.580404], [38.530355, 37.582759], [38.558025, 37.601599], [38.621019, 37.619849], [38.62985, 37.651935], [38.704618, 37.648108], [38.738176, 37.659294], [38.666645, 37.747603], [38.658109, 37.785871], [38.667234, 37.796762], [38.68519, 37.770564], [38.692255, 37.74672], [38.726401, 37.699033], [38.774383, 37.659], [38.808235, 37.659588], [38.813239, 37.670774], [38.789101, 37.697267], [38.814122, 37.715223], [38.848857, 37.712868], [38.876527, 37.723465], [38.878882, 37.748192], [38.872995, 37.757906], [38.892717, 37.76762], [38.918032, 37.76762], [38.932456, 37.779395], [38.929807, 37.794996], [38.884769, 37.773507], [38.882709, 37.810597], [38.926569, 37.843272], [38.951296, 37.840622], [38.96101, 37.859462], [38.973373, 37.866232], [38.982793, 37.899495], [39.00016, 37.88095], [38.992212, 37.826198], [38.970724, 37.808537], [38.97926, 37.795879], [38.972784, 37.749958], [38.947174, 37.747898], [38.928335, 37.727881], [38.935694, 37.710513], [38.912734, 37.697856], [38.945997, 37.699033], [38.951296, 37.688142], [38.931573, 37.682254], [38.912145, 37.691968], [38.88889, 37.685492], [38.847091, 37.68667], [38.841203, 37.676073], [38.882709, 37.654584], [38.880943, 37.638689], [38.835905, 37.641043], [38.749951, 37.620438], [38.657815, 37.610135], [38.603357, 37.54096]]]}}, {"type": "Feature", "properties": {"name": "Kakhovka Reservoir", "name_ar": "خزان كاخوفكا", "featurecla": "Reservoir", "scalerank": 4}, "geometry": {"type": "Polygon", "coordinates": [[[35.319431, 47.56082], [35.326201, 47.526674], [35.319431, 47.519904], [35.324435, 47.506068], [35.288228, 47.488112], [35.277926, 47.474866], [35.287051, 47.437776], [35.282341, 47.435127], [35.235243, 47.45691], [35.178136, 47.444841], [35.099541, 47.451022], [35.077464, 47.444546], [35.058624, 47.42188], [34.968549, 47.396271], [34.925277, 47.395682], [34.892603, 47.408634], [34.832847, 47.451022], [34.781039, 47.474866], [34.753663, 47.506068], [34.615901, 47.541392], [34.576456, 47.534327], [34.510518, 47.506068], [34.468424, 47.495766], [34.383942, 47.49135], [34.35215, 47.478104], [34.313294, 47.429828], [34.293866, 47.423646], [34.22263, 47.416876], [34.090461, 47.422763], [34.05131, 47.416876], [34.035709, 47.407162], [34.029822, 47.39215], [34.030116, 47.347995], [34.065145, 47.35712], [34.137853, 47.356237], [34.183185, 47.379786], [34.189661, 47.37802], [34.191428, 47.368895], [34.16729, 47.347995], [34.21586, 47.307078], [34.174943, 47.312377], [34.092227, 47.336515], [34.05131, 47.327978], [34.036003, 47.31797], [34.013043, 47.288533], [34.006567, 47.250855], [33.998619, 47.237903], [33.921201, 47.175792], [33.905306, 47.148416], [33.845255, 47.115153], [33.823472, 47.061579], [33.788738, 47.048921], [33.699545, 46.977979], [33.691597, 46.933825], [33.735752, 46.92205], [33.789915, 46.923227], [33.789915, 46.916457], [33.684238, 46.905271], [33.666871, 46.897618], [33.640378, 46.868181], [33.706904, 46.863472], [33.705138, 46.851403], [33.69513, 46.84787], [33.674524, 46.854641], [33.643616, 46.848165], [33.633019, 46.834624], [33.54, 46.831386], [33.558839, 46.836684], [33.578267, 46.87554], [33.598873, 46.889376], [33.613297, 46.945894], [33.644499, 46.988282], [33.640378, 46.999173], [33.625365, 46.994758], [33.586215, 46.999762], [33.578267, 47.008887], [33.585626, 47.01713], [33.623599, 47.016541], [33.640378, 47.026255], [33.633019, 47.03332], [33.660395, 47.074236], [33.666282, 47.062756], [33.660395, 47.026255], [33.686299, 47.040973], [33.786088, 47.134581], [33.786677, 47.165489], [33.748998, 47.184034], [33.760479, 47.188155], [33.783733, 47.184034], [33.84555, 47.20199], [33.925028, 47.262924], [33.957997, 47.297364], [33.972421, 47.333277], [33.948283, 47.361536], [33.984784, 47.370661], [33.989199, 47.379492], [33.984784, 47.393327], [33.929149, 47.449845], [33.922968, 47.464563], [33.955053, 47.464563], [33.927677, 47.491939], [33.923556, 47.503714], [33.920907, 47.533444], [33.927677, 47.56082], [33.965062, 47.540509], [34.077803, 47.581131], [34.10253, 47.571123], [34.146979, 47.530501], [34.219098, 47.526674], [34.257365, 47.56082], [34.257365, 47.567591], [34.224985, 47.599971], [34.236465, 47.609096], [34.260014, 47.612334], [34.277088, 47.567591], [34.290923, 47.579071], [34.302992, 47.579659], [34.359215, 47.56082], [34.379526, 47.540215], [34.388946, 47.53992], [34.45871, 47.569945], [34.462831, 47.574067], [34.448702, 47.595555], [34.59088, 47.611156], [34.612957, 47.609096], [34.669181, 47.579071], [34.897018, 47.546691], [34.942056, 47.546396], [34.985916, 47.556993], [35.020063, 47.576421], [35.078347, 47.629113], [35.118969, 47.689752], [35.131332, 47.73008], [35.126917, 47.765698], [35.091004, 47.808969], [35.086, 47.824276], [35.113376, 47.84812], [35.13928, 47.802787], [35.167833, 47.783654], [35.195504, 47.729491], [35.209339, 47.68357], [35.25732, 47.642653], [35.284402, 47.581131], [35.319431, 47.56082]]]}}, {"type": "Feature", "properties": {"name": "Lake Nasser", "name_ar": "بحيرة ناصر", "featurecla": "Reservoir", "scalerank": 5}, "geometry": {"type": "Polygon", "coordinates": [[[32.227725, 22.651433], [32.24833, 22.678515], [32.21124, 22.692939], [32.221543, 22.705891], [32.205353, 22.707951], [32.166202, 22.733267], [32.132645, 22.730029], [32.094378, 22.707657], [32.07701, 22.704419], [32.077599, 22.69235], [32.055816, 22.689701], [32.044336, 22.670861], [32.056993, 22.637598], [32.020492, 22.651728], [32.004302, 22.64849], [31.969567, 22.614638], [31.981342, 22.561947], [31.9522, 22.579609], [31.943958, 22.578431], [31.940131, 22.561947], [31.974571, 22.493654], [31.951317, 22.497187], [31.934832, 22.478642], [31.90363, 22.466573], [31.894799, 22.450677], [31.892444, 22.411232], [31.811788, 22.418297], [31.824151, 22.404167], [31.816792, 22.396808], [31.84093, 22.378558], [31.845051, 22.364134], [31.837986, 22.34971], [31.822385, 22.341468], [31.796481, 22.370316], [31.768811, 22.376203], [31.741435, 22.371199], [31.686389, 22.342351], [31.69728, 22.326161], [31.693159, 22.318213], [31.680502, 22.320862], [31.666078, 22.335875], [31.659307, 22.308794], [31.646061, 22.322334], [31.637819, 22.303789], [31.618096, 22.294958], [31.648416, 22.272881], [31.661662, 22.247271], [31.686389, 22.246683], [31.667844, 22.240207], [31.611326, 22.253453], [31.596314, 22.248743], [31.542445, 22.212536], [31.542445, 22.191931], [31.531553, 22.196935], [31.517718, 22.189576], [31.440006, 22.126582], [31.385549, 22.035035], [31.385549, 21.932007], [31.344338, 21.856356], [31.330797, 21.843109], [31.330797, 21.82221], [31.303421, 21.794834], [31.295179, 21.773345], [31.28311, 21.766869], [31.268686, 21.781293], [31.255145, 21.766869], [31.230125, 21.768635], [31.213051, 21.74332], [31.220999, 21.725953], [31.200982, 21.705641], [31.181849, 21.656188], [31.121504, 21.6347], [31.090596, 21.60909], [31.107375, 21.644414], [31.12121, 21.658543], [31.166836, 21.671201], [31.180966, 21.718005], [31.173312, 21.766869], [31.191563, 21.808669], [31.186853, 21.82221], [31.211285, 21.8175], [31.22777, 21.82898], [31.238072, 21.859299], [31.281344, 21.885498], [31.336979, 21.960855], [31.344043, 21.987642], [31.344338, 22.047693], [31.366121, 22.109215], [31.358173, 22.143655], [31.381133, 22.146305], [31.400856, 22.160434], [31.444422, 22.221073], [31.515069, 22.260223], [31.659307, 22.383856], [31.646061, 22.390627], [31.693748, 22.404167], [31.672848, 22.459508], [31.689038, 22.463629], [31.729955, 22.447733], [31.755859, 22.469516], [31.7485, 22.493654], [31.789416, 22.475109], [31.811199, 22.472754], [31.816792, 22.493654], [31.738197, 22.531627], [31.669316, 22.592266], [31.656069, 22.614049], [31.667844, 22.636715], [31.666078, 22.651433], [31.69051, 22.620819], [31.745262, 22.602569], [31.78294, 22.563124], [31.824151, 22.574899], [31.844757, 22.561947], [31.856237, 22.570189], [31.856237, 22.577254], [31.837986, 22.583141], [31.83887, 22.600508], [31.847406, 22.613166], [31.8895, 22.628767], [31.878609, 22.652022], [31.933066, 22.662619], [31.957498, 22.677043], [32.002536, 22.726496], [31.994883, 22.733267], [32.062292, 22.740331], [32.063764, 22.767413], [32.090551, 22.754166], [32.104092, 22.755933], [32.128229, 22.77801], [32.158255, 22.785663], [32.166202, 22.808329], [32.170324, 22.790373], [32.166202, 22.774772], [32.204764, 22.767413], [32.225664, 22.769473], [32.241854, 22.781542], [32.265992, 22.729734], [32.289835, 22.712661], [32.286303, 22.688523], [32.310441, 22.671744], [32.310441, 22.64378], [32.351063, 22.627884], [32.365487, 22.630828], [32.386681, 22.646724], [32.423477, 22.716488], [32.504132, 22.758582], [32.516201, 22.774772], [32.545932, 22.765941], [32.559767, 22.785663], [32.571836, 22.885747], [32.571542, 22.897816], [32.552703, 22.91901], [32.550642, 22.931962], [32.583611, 22.919305], [32.599212, 22.923426], [32.627765, 22.950507], [32.636891, 22.985537], [32.62541, 22.994073], [32.65102, 23.031163], [32.642484, 23.055595], [32.680457, 23.070902], [32.659557, 23.075906], [32.659557, 23.083266], [32.68134, 23.08562], [32.693703, 23.101516], [32.696058, 23.123593], [32.686933, 23.144788], [32.695764, 23.154502], [32.700768, 23.192475], [32.724906, 23.196007], [32.721079, 23.21985], [32.76906, 23.278135], [32.779952, 23.279606], [32.789371, 23.260767], [32.810271, 23.290204], [32.831171, 23.260767], [32.842651, 23.276074], [32.826756, 23.29668], [32.824989, 23.309337], [32.832937, 23.318757], [32.865317, 23.329648], [32.883862, 23.293442], [32.892987, 23.288732], [32.905351, 23.294325], [32.909472, 23.306394], [32.906823, 23.329648], [32.894165, 23.349665], [32.844417, 23.3844], [32.824989, 23.384989], [32.828816, 23.39853], [32.862079, 23.435619], [32.880035, 23.466528], [32.885628, 23.486544], [32.879447, 23.50038], [32.865612, 23.500085], [32.821163, 23.473004], [32.807328, 23.479185], [32.779657, 23.524812], [32.761995, 23.5254], [32.749043, 23.535114], [32.721079, 23.514215], [32.714897, 23.490077], [32.645133, 23.458285], [32.61393, 23.469177], [32.557412, 23.508033], [32.578312, 23.518041], [32.646016, 23.531582], [32.666621, 23.54895], [32.686933, 23.542179], [32.739329, 23.561607], [32.724906, 23.573087], [32.691937, 23.579269], [32.679573, 23.601052], [32.664855, 23.600758], [32.654258, 23.587217], [32.659557, 23.56249], [32.636891, 23.563962], [32.620995, 23.576031], [32.612458, 23.595165], [32.61187, 23.617831], [32.636891, 23.611649], [32.673686, 23.664929], [32.701356, 23.679059], [32.71107, 23.675821], [32.739329, 23.61106], [32.776419, 23.590455], [32.798497, 23.564551], [32.820574, 23.566611], [32.822634, 23.574265], [32.810566, 23.590455], [32.841179, 23.610472], [32.844712, 23.644912], [32.865317, 23.706434], [32.852365, 23.696426], [32.817336, 23.72027], [32.852954, 23.716148], [32.871499, 23.737931], [32.879447, 23.808873], [32.870027, 23.842136], [32.831171, 23.885997], [32.78319, 23.89836], [32.804973, 23.906013], [32.834703, 23.896594], [32.851482, 23.911901], [32.879447, 23.987846], [32.889455, 23.966947], [32.879447, 23.918671], [32.899169, 23.891589], [32.891221, 23.874811], [32.892987, 23.864214], [32.929489, 23.821236], [32.94038, 23.778259], [32.989245, 23.754416], [32.970405, 23.752944], [32.973055, 23.740286], [33.002785, 23.713205], [32.982474, 23.692894], [32.995426, 23.682591], [32.982474, 23.672288], [32.975115, 23.624012], [32.968639, 23.624012], [32.960103, 23.637848], [32.933021, 23.646384], [32.927134, 23.658747], [32.902407, 23.622246], [32.896225, 23.590455], [32.91742, 23.579563], [32.934787, 23.555131], [32.95451, 23.569261], [32.947739, 23.542179], [32.968639, 23.54895], [32.973055, 23.529816], [32.991011, 23.517747], [33.012794, 23.514509], [33.030161, 23.521574], [33.037226, 23.514215], [32.99366, 23.499496], [32.947739, 23.508033], [32.910061, 23.523634], [32.895342, 23.522162], [32.899169, 23.50038], [32.935082, 23.476242], [32.920363, 23.459463], [32.958336, 23.424728], [32.947739, 23.418546], [32.954215, 23.397941], [32.966284, 23.389993], [32.974526, 23.394408], [32.968639, 23.411776], [32.984535, 23.411482], [32.992483, 23.403239], [33.002785, 23.37763], [32.972466, 23.362911], [32.970405, 23.351726], [32.991894, 23.326999], [33.018387, 23.326116], [32.998075, 23.27578], [33.01662, 23.240456], [33.008084, 23.223383], [32.992483, 23.221911], [32.95451, 23.23398], [32.96128, 23.254585], [32.920363, 23.260767], [32.906823, 23.23398], [32.920363, 23.228681], [32.940969, 23.185116], [32.970405, 23.144493], [32.957748, 23.138017], [32.862962, 23.168337], [32.844712, 23.150969], [32.844712, 23.137134], [32.872676, 23.069136], [32.900641, 23.065015], [32.946856, 23.029986], [32.944207, 23.017917], [32.922718, 23.002021], [32.931844, 22.980532], [32.947739, 22.98642], [32.957159, 22.971407], [33.009261, 22.959044], [33.064307, 22.918127], [33.039581, 22.914595], [33.000725, 22.920482], [32.962752, 22.931962], [32.940969, 22.945503], [32.936848, 22.932257], [32.940969, 22.918127], [32.928017, 22.924898], [32.885628, 22.965226], [32.809682, 23.011735], [32.799674, 23.024687], [32.776419, 23.027925], [32.776419, 23.069136], [32.728438, 23.048531], [32.746983, 23.035284], [32.741684, 23.014384], [32.755519, 23.014384], [32.744039, 23.000255], [32.728438, 23.007614], [32.728732, 22.97023], [32.714897, 22.931962], [32.7043, 22.950802], [32.692526, 22.955512], [32.686638, 22.946386], [32.693703, 22.924898], [32.656319, 22.931962], [32.62541, 22.918127], [32.634241, 22.903998], [32.632475, 22.890163], [32.61187, 22.918127], [32.603039, 22.906647], [32.598329, 22.86367], [32.615108, 22.865142], [32.619523, 22.846302], [32.598329, 22.830112], [32.596268, 22.781837], [32.585083, 22.760642], [32.565949, 22.74092], [32.488531, 22.715605], [32.481761, 22.698532], [32.449675, 22.688523], [32.423477, 22.661147], [32.407581, 22.610517], [32.399339, 22.602863], [32.331341, 22.602863], [32.3178, 22.534571], [32.344293, 22.528389], [32.326631, 22.519853], [32.286303, 22.541341], [32.26452, 22.522502], [32.250391, 22.526623], [32.241854, 22.555176], [32.269524, 22.55812], [32.293368, 22.570778], [32.310441, 22.591089], [32.3178, 22.616698], [32.276, 22.610222], [32.283065, 22.630828], [32.265992, 22.63436], [32.242443, 22.6532], [32.227725, 22.651433]]]}}, {"type": "Feature", "properties": {"name": "Shardara Bgeni", "name_ar": "شاردارا بجيني", "featurecla": "Reservoir", "scalerank": 6}, "geometry": {"type": "Polygon", "coordinates": [[[68.451291, 41.11925], [68.455706, 41.106887], [68.425681, 41.094229], [68.417145, 41.081571], [68.369163, 41.050369], [68.32442, 41.057434], [68.273495, 41.016223], [68.231107, 41.038889], [68.218155, 41.04301], [68.191662, 41.036828], [68.116893, 41.066853], [68.095405, 41.065381], [68.081864, 41.04301], [68.070973, 41.053607], [68.058609, 41.055079], [68.033883, 41.04301], [68.020636, 41.059494], [68.012688, 41.098056], [68.00268, 41.116012], [67.949106, 41.172236], [67.930855, 41.215213], [67.909955, 41.221689], [67.912016, 41.242], [67.928206, 41.250242], [68.029173, 41.242], [68.043891, 41.23258], [68.091578, 41.17459], [68.110123, 41.179006], [68.157516, 41.208148], [68.239938, 41.207559], [68.263487, 41.184893], [68.28056, 41.156634], [68.335017, 41.133085], [68.383882, 41.138089], [68.451291, 41.11925]]]}}, {"type": "Feature", "properties": {"name": "Roseires Reservoir", "name_ar": "خزان الروصيرص", "featurecla": "Reservoir", "scalerank": 7}, "geometry": {"type": "Polygon", "coordinates": [[[34.319182, 11.622493], [34.35215, 11.632207], [34.328013, 11.689902], [34.331251, 11.71404], [34.356272, 11.758489], [34.393361, 11.789397], [34.464009, 11.799111], [34.482554, 11.783215], [34.488735, 11.759961], [34.489324, 11.726698], [34.481671, 11.702854], [34.462243, 11.707564], [34.446347, 11.732879], [34.434867, 11.727875], [34.428096, 11.687253], [34.417205, 11.663704], [34.441048, 11.638388], [34.461654, 11.59129], [34.483143, 11.574217], [34.528769, 11.552728], [34.580871, 11.485319], [34.65093, 11.437043], [34.671241, 11.416143], [34.710392, 11.398776], [34.720989, 11.355799], [34.733941, 11.33225], [34.777507, 11.296337], [34.73659, 11.295748], [34.706859, 11.323124], [34.655346, 11.392005], [34.566153, 11.434983], [34.504042, 11.49621], [34.455178, 11.501803], [34.413673, 11.544192], [34.360981, 11.56362], [34.329484, 11.593939], [34.319182, 11.622493]]]}}, {"type": "Feature", "properties": {"name": "Buhayrat al-Assad", "name_ar": "بحيرة الأسد", "featurecla": "Reservoir", "scalerank": 7}, "geometry": {"type": "Polygon", "coordinates": [[[38.549783, 35.89046], [38.573626, 35.890166], [38.559791, 35.852781], [38.519169, 35.836003], [38.519169, 35.842773], [38.512104, 35.842773], [38.458236, 35.801268], [38.449993, 35.801268], [38.441751, 35.812159], [38.409077, 35.808627], [38.39377, 35.847188], [38.36139, 35.818635], [38.36816, 35.773892], [38.36139, 35.773892], [38.350498, 35.794497], [38.327244, 35.794497], [38.310171, 35.785372], [38.309287, 35.798913], [38.324006, 35.807155], [38.335486, 35.836297], [38.318118, 35.859257], [38.253653, 35.877508], [38.203905, 35.931671], [38.134435, 35.948744], [38.108237, 35.973176], [38.110003, 35.989661], [38.087631, 35.986128], [38.07409, 35.993782], [38.07409, 35.999963], [38.087337, 36.007911], [38.052896, 36.027045], [38.01875, 36.075615], [38.014923, 36.113294], [38.024932, 36.145968], [38.042299, 36.172461], [38.091164, 36.216321], [38.094402, 36.240165], [38.103821, 36.249584], [38.142383, 36.26754], [38.159162, 36.262831], [38.176529, 36.301392], [38.17859, 36.342603], [38.19684, 36.336422], [38.22245, 36.280787], [38.225688, 36.252233], [38.144149, 36.217499], [38.12531, 36.195421], [38.135613, 36.171872], [38.094402, 36.133899], [38.118245, 36.071788], [38.149153, 36.05501], [38.174763, 36.013799], [38.189481, 36.006734], [38.209792, 36.006734], [38.217151, 35.993782], [38.25483, 35.993782], [38.268371, 35.970233], [38.351087, 35.940208], [38.371693, 35.920485], [38.389354, 35.918425], [38.404661, 35.927844], [38.411432, 35.957869], [38.423501, 35.965817], [38.429682, 35.945212], [38.443223, 35.952571], [38.463829, 35.911654], [38.476781, 35.904884], [38.48149, 35.887811], [38.497975, 35.904295], [38.515637, 35.890166], [38.544484, 35.903706], [38.549783, 35.89046]]]}}, {"type": "Feature", "properties": {"name": "Keban Baraji", "name_ar": "كيبان براجي", "featurecla": "Reservoir", "scalerank": 7}, "geometry": {"type": "Polygon", "coordinates": [[[39.860586, 38.690746], [39.862058, 38.672495], [39.84734, 38.640998], [39.819081, 38.618921], [39.784935, 38.61009], [39.75226, 38.618038], [39.731655, 38.638349], [39.701924, 38.641293], [39.687795, 38.655128], [39.621857, 38.645119], [39.587122, 38.652773], [39.543851, 38.626575], [39.415802, 38.593311], [39.371353, 38.593017], [39.35428, 38.611856], [39.365466, 38.623925], [39.407266, 38.638938], [39.425516, 38.658955], [39.466727, 38.682209], [39.477913, 38.699871], [39.471731, 38.762571], [39.453481, 38.761982], [39.442589, 38.780233], [39.382539, 38.762571], [39.368115, 38.796128], [39.346332, 38.806137], [39.306299, 38.807314], [39.258906, 38.837045], [39.245071, 38.858239], [39.218578, 38.850586], [39.224171, 38.833513], [39.210336, 38.827625], [39.197384, 38.830275], [39.163238, 38.858239], [39.135273, 38.865598], [39.117023, 38.860888], [39.094945, 38.822621], [39.080521, 38.835867], [39.084348, 38.877962], [39.064037, 38.879728], [39.029596, 38.864421], [38.985147, 38.8812], [38.960127, 38.865304], [38.930396, 38.877962], [38.915678, 38.866481], [38.884475, 38.860594], [38.868285, 38.842638], [38.848268, 38.847053], [38.841498, 38.856179], [38.800876, 38.856473], [38.792633, 38.850586], [38.787335, 38.818206], [38.779976, 38.807608], [38.759076, 38.816439], [38.749656, 38.830275], [38.753189, 38.842932], [38.779093, 38.858239], [38.773205, 38.871485], [38.725224, 38.898861], [38.699909, 38.891797], [38.666645, 38.899156], [38.649278, 38.927709], [38.638975, 38.963916], [38.641919, 38.987759], [38.651044, 38.987171], [38.680775, 38.919761], [38.726401, 38.924765], [38.765552, 38.970981], [38.768495, 38.996296], [38.711978, 39.016901], [38.699909, 39.033386], [38.745535, 39.029559], [38.731994, 39.077246], [38.749067, 39.078129], [38.759665, 39.07077], [38.770556, 39.037507], [38.806468, 39.015135], [38.809118, 38.981872], [38.847385, 38.940072], [38.817654, 38.923588], [38.786452, 38.926532], [38.786452, 38.919761], [38.82678, 38.913285], [38.87535, 38.919761], [38.87535, 38.926532], [38.854744, 38.940072], [38.875644, 38.970981], [38.87535, 38.995413], [38.893011, 38.999828], [38.909496, 39.029559], [38.916266, 39.029559], [38.895661, 38.967448], [38.920976, 38.92977], [38.957183, 38.92977], [38.951296, 38.94802], [38.953945, 38.95744], [38.962776, 38.960383], [38.986619, 38.926532], [39.005164, 38.926532], [39.013995, 38.937717], [39.022237, 38.938012], [39.029008, 38.912108], [39.046375, 38.897978], [39.068747, 38.907692], [39.094945, 38.891797], [39.180605, 38.885321], [39.221522, 38.871191], [39.234768, 38.87384], [39.245071, 38.891797], [39.26185, 38.891502], [39.276862, 38.865009], [39.31248, 38.834396], [39.368115, 38.822621], [39.390193, 38.805842], [39.40285, 38.781704], [39.421689, 38.791418], [39.46084, 38.775523], [39.502345, 38.781999], [39.53031, 38.816439], [39.557097, 38.819677], [39.575053, 38.836456], [39.595659, 38.89003], [39.594776, 38.916523], [39.576525, 38.954791], [39.594776, 38.954202], [39.615675, 38.936834], [39.618325, 38.907104], [39.602135, 38.850586], [39.630688, 38.846759], [39.704573, 38.858239], [39.800536, 38.858239], [39.763152, 38.844698], [39.61803, 38.836162], [39.594776, 38.830275], [39.569755, 38.811435], [39.530015, 38.805842], [39.487921, 38.750207], [39.488216, 38.73284], [39.501462, 38.701637], [39.531487, 38.681326], [39.556803, 38.673967], [39.602135, 38.666314], [39.68073, 38.672495], [39.701335, 38.66808], [39.730772, 38.648652], [39.75226, 38.645119], [39.823791, 38.66337], [39.851167, 38.690452], [39.860586, 38.690746]]]}}, {"type": "Feature", "properties": {"name": "Obanbori Qayroqum", "name_ar": "أوبانبوري قيروقوم", "featurecla": "Reservoir", "scalerank": 7}, "geometry": {"type": "Polygon", "coordinates": [[[69.911926, 40.232036], [69.869832, 40.235569], [69.830976, 40.25117], [69.822145, 40.2653], [69.832447, 40.286199], [69.850992, 40.296797], [69.925172, 40.303567], [70.0, 40.325318059381615], [70.0, 40.24934493799444], [69.911926, 40.232036]]]}}, {"type": "Feature", "properties": {"name": "Tsimlyansk Reservoir", "name_ar": "خزان تسيمليانسك", "featurecla": "Reservoir", "scalerank": 7}, "geometry": {"type": "Polygon", "coordinates": [[[43.064151, 47.975285], [43.048256, 47.944082], [43.042074, 47.913763], [43.070922, 47.886093], [43.080341, 47.855184], [43.103302, 47.82457], [43.08093, 47.777178], [43.088583, 47.752451], [43.088289, 47.718599], [43.09712, 47.704175], [43.07622, 47.685925], [43.048844, 47.68357], [43.036775, 47.697994], [43.033537, 47.706825], [43.043251, 47.716539], [43.041485, 47.728902], [43.027061, 47.763637], [43.048844, 47.779827], [43.046195, 47.801021], [43.017936, 47.841055], [42.997331, 47.84812], [42.932276, 47.787481], [42.90961, 47.775706], [42.725927, 47.759516], [42.680889, 47.746858], [42.590225, 47.670618], [42.521932, 47.634411], [42.518989, 47.630584], [42.534884, 47.609096], [42.521049, 47.609685], [42.459233, 47.63971], [42.438039, 47.64177], [42.413018, 47.635], [42.376517, 47.609096], [42.389174, 47.594672], [42.39094, 47.571123], [42.384759, 47.564941], [42.353262, 47.588196], [42.265247, 47.588785], [42.239932, 47.581131], [42.202547, 47.538743], [42.174877, 47.533444], [42.137493, 47.592611], [42.109823, 47.601737], [42.116593, 47.667086], [42.124247, 47.679155], [42.16428, 47.700349], [42.216382, 47.716833], [42.234633, 47.73008], [42.239932, 47.74627], [42.211673, 47.758927], [42.202842, 47.775117], [42.17105, 47.779827], [42.175172, 47.787481], [42.20343, 47.794251], [42.248763, 47.779533], [42.288502, 47.801021], [42.255533, 47.832224], [42.206668, 47.84812], [42.234633, 47.852829], [42.307635, 47.833696], [42.332656, 47.838111], [42.370924, 47.930836], [42.284675, 47.958212], [42.239475918407145, 48.0], [42.25631492387275, 48.0], [42.279082, 47.989414], [42.299982, 47.960272], [42.356205, 47.95203], [42.376517, 47.958212], [42.397416, 47.994713], [42.405953, 47.998834], [42.428325, 47.98235], [42.435389, 47.941139], [42.460705, 47.92436], [42.466003, 47.91023], [42.456878, 47.843704], [42.469536, 47.834579], [42.56226, 47.807203], [42.791864, 47.878439], [42.854858, 47.965865], [42.857213, 47.979112], [42.809232, 47.938195], [42.801284, 47.953502], [42.842035013030525, 48.0], [43.086218178476095, 48.0], [43.064151, 47.975285]]]}}, {"type": "Feature", "properties": {"name": "Syvash", "name_ar": "سيفاش", "featurecla": "Alkaline Lake", "scalerank": 2}, "geometry": {"type": "Polygon", "coordinates": [[[35.387723, 45.30658], [35.441003, 45.292156], [35.455427, 45.279204], [35.433644, 45.261248], [35.404502, 45.251239], [35.386546, 45.256538], [35.34975, 45.285385], [35.234948, 45.314528], [35.193443, 45.336605], [35.161652, 45.340432], [35.122796, 45.332484], [35.051854, 45.374872], [35.024184, 45.412845], [35.010349, 45.422559], [35.010349, 45.429918], [35.055975, 45.439632], [35.087766, 45.457883], [35.095714, 45.474367], [35.089238, 45.480549], [35.066867, 45.561499], [35.043023, 45.577689], [35.033898, 45.604771], [35.003284, 45.621844], [34.976791, 45.663055], [34.965605, 45.668942], [34.900256, 45.668942], [34.872292, 45.696907], [34.839029, 45.703677], [34.872292, 45.737234], [34.791636, 45.717218], [34.737179, 45.728403], [34.715985, 45.724282], [34.753369, 45.761961], [34.764849, 45.783744], [34.750131, 45.806116], [34.724227, 45.81318], [34.647103, 45.78551], [34.680366, 45.84821], [34.747187, 45.858218], [34.756901, 45.877646], [34.750131, 45.902373], [34.707154, 45.871464], [34.647692, 45.858807], [34.546431, 45.792575], [34.506103, 45.777857], [34.461654, 45.771969], [34.461654, 45.77874], [34.503159, 45.799934], [34.520821, 45.829665], [34.541132, 45.839379], [34.546136, 45.862928], [34.591469, 45.877057], [34.622671, 45.903844], [34.632679, 45.925039], [34.626792, 45.94741], [34.544076, 45.970665], [34.544076, 45.964484], [34.575278, 45.939168], [34.578811, 45.929749], [34.569097, 45.918268], [34.530535, 45.91974], [34.499921, 45.878529], [34.488147, 45.875586], [34.461654, 45.909732], [34.482554, 45.929749], [34.465481, 45.936225], [34.444875, 45.932398], [34.427802, 45.919151], [34.411612, 45.864694], [34.406902, 45.895602], [34.379526, 45.881767], [34.386591, 45.902373], [34.359215, 45.881767], [34.372756, 45.91974], [34.406902, 45.936519], [34.410729, 45.956241], [34.359215, 45.984795], [34.386591, 45.991565], [34.349796, 46.026006], [34.331251, 46.025123], [34.318299, 45.998041], [34.297693, 45.999218], [34.28062, 46.008638], [34.277088, 46.046022], [34.239703, 46.007461], [34.226751, 46.004517], [34.21586, 46.018352], [34.228518, 46.029244], [34.16729, 46.046317], [34.161108, 46.038663], [34.11607, 46.059857], [34.113127, 46.048377], [34.184657, 46.008638], [34.200847, 45.988621], [34.196137, 45.95006], [34.153749, 45.936519], [34.128139, 45.954769], [34.112832, 45.984795], [34.144624, 45.978907], [34.16729, 45.991565], [34.16729, 45.998041], [34.112244, 46.033365], [34.078981, 46.045434], [34.037475, 46.087233], [33.998914, 46.100774], [33.939746, 46.098714], [33.961824, 46.080463], [33.99126, 46.076931], [33.99597, 46.066922], [33.976542, 46.060741], [33.989199, 46.028949], [33.981546, 46.017469], [33.949755, 46.028066], [33.937097, 46.036897], [33.9265, 46.055736], [33.913548, 46.059857], [33.882934, 46.039252], [33.865567, 46.038663], [33.87322, 46.046317], [33.865567, 46.059857], [33.885583, 46.065156], [33.876458, 46.08164], [33.838485, 46.115198], [33.85232, 46.132565], [33.852026, 46.159353], [33.804339, 46.17672], [33.799629, 46.127856], [33.786971, 46.12138], [33.73222, 46.145517], [33.667754, 46.223818], [33.713969, 46.219108], [33.755769, 46.245601], [33.77137, 46.247367], [33.810226, 46.238242], [33.822884, 46.224113], [33.893826, 46.231177], [33.972126, 46.210866], [34.006861, 46.159058], [34.033943, 46.135803], [34.067206, 46.150816], [34.077803, 46.149344], [34.085457, 46.12815], [34.138148, 46.124323], [34.12343, 46.16524], [34.077803, 46.18349], [34.077803, 46.190261], [34.115482, 46.189083], [34.124313, 46.209689], [34.135204, 46.207923], [34.153749, 46.190261], [34.147567, 46.162296], [34.159048, 46.146989], [34.202025, 46.18349], [34.166995, 46.206745], [34.147567, 46.23471], [34.152572, 46.276215], [34.162874, 46.282691], [34.181714, 46.279159], [34.213211, 46.260614], [34.237348, 46.234415], [34.289745, 46.161413], [34.297104, 46.141985], [34.298576, 46.106367], [34.307996, 46.101657], [34.318299, 46.112549], [34.331251, 46.162885], [34.331251, 46.17672], [34.290923, 46.190261], [34.311234, 46.214399], [34.379526, 46.190261], [34.448702, 46.152288], [34.484614, 46.145517], [34.517289, 46.162296], [34.527297, 46.186434], [34.54437, 46.187317], [34.568214, 46.169361], [34.572629, 46.159353], [34.570569, 46.120791], [34.552318, 46.085173], [34.524059, 46.12815], [34.512285, 46.121674], [34.492857, 46.094592], [34.489619, 46.111666], [34.494328, 46.126972], [34.482554, 46.12815], [34.448702, 46.107839], [34.439577, 46.090766], [34.439871, 46.07281], [34.449585, 46.057208], [34.469013, 46.046317], [34.46136, 46.034248], [34.427508, 46.046317], [34.405725, 46.024828], [34.401309, 46.011287], [34.410729, 46.0054], [34.461654, 46.003045], [34.472545, 45.993037], [34.461654, 45.970665], [34.482848, 45.966838], [34.514345, 45.994803], [34.555262, 45.98244], [34.575573, 45.996864], [34.629441, 46.071338], [34.633268, 46.083995], [34.616489, 46.141396], [34.620316, 46.162296], [34.652108, 46.184374], [34.697734, 46.180547], [34.742183, 46.162296], [34.770736, 46.141985], [34.787221, 46.111371], [34.788104, 46.094592], [34.774269, 46.087233], [34.746893, 46.107839], [34.721872, 46.109605], [34.683016, 46.101952], [34.660938, 46.087233], [34.698028, 46.066039], [34.715985, 46.03572], [34.753663, 46.011582], [34.763083, 46.016292], [34.770736, 46.036014], [34.784571, 46.038663], [34.795168, 46.029244], [34.810181, 45.984795], [34.81548, 45.935636], [34.84786, 45.91297], [34.841384, 45.902373], [34.825488, 45.895602], [34.832847, 45.881767], [34.811359, 45.81789], [34.827254, 45.814652], [34.845799, 45.821423], [34.872292, 45.854391], [34.894664, 45.846443], [34.910854, 45.830253], [34.942056, 45.759017], [34.977086, 45.717806], [34.999752, 45.674829], [35.023889, 45.66276], [35.084528, 45.587109], [35.126917, 45.552962], [35.33827, 45.340137], [35.366824, 45.330423], [35.387723, 45.30658]]]}}, {"type": "Feature", "properties": {"name": "Lake Turkana", "name_ar": "بحيرة توركانا", "featurecla": "Alkaline Lake", "scalerank": 3}, "geometry": {"type": "Polygon", "coordinates": [[[36.709713, 2.730341], [36.68793, 2.715328], [36.699999, 2.646153], [36.693817, 2.545186], [36.708241, 2.508391], [36.702354, 2.486313], [36.635827, 2.408895], [36.621698, 2.403303], [36.581664, 2.407424], [36.558115, 2.394472], [36.531917, 2.422731], [36.517787, 2.551662], [36.476871, 2.611712], [36.443313, 2.630552], [36.436543, 2.654395], [36.435954, 2.730341], [36.380614, 2.846321], [36.261396, 2.938456], [36.247267, 2.980551], [36.239613, 2.982022], [36.21312, 2.963183], [36.182212, 2.983494], [36.141884, 2.982317], [36.126577, 2.987615], [36.12069, 3.007926], [36.148066, 3.116547], [36.134525, 3.172182], [36.148066, 3.213098], [36.142767, 3.219869], [36.106266, 3.216336], [36.02826, 3.252543], [35.996468, 3.305823], [35.947898, 3.33938], [35.939951, 3.540725], [35.925821, 3.552206], [35.922583, 3.542492], [35.935829, 3.497454], [35.918168, 3.481264], [35.907865, 3.495688], [35.89609, 3.561331], [35.853113, 3.600481], [35.841339, 3.630212], [35.833391, 3.719699], [35.840161, 3.758261], [35.860472, 3.792407], [35.853113, 3.83715], [35.853996, 3.959017], [35.922583, 4.117974], [35.915224, 4.422935], [35.94937, 4.576887], [35.97027, 4.617215], [35.988226, 4.635171], [36.004122, 4.635171], [36.007066, 4.591017], [36.029437, 4.553927], [36.032087, 4.525374], [36.037974, 4.525374], [36.058285, 4.560403], [36.038563, 4.572766], [36.025022, 4.60338], [36.024727, 4.61486], [36.043272, 4.636643], [36.074475, 4.643414], [36.106561, 4.637821], [36.126872, 4.621631], [36.123634, 4.663136], [36.154836, 4.664019], [36.167494, 4.660192], [36.186628, 4.624574], [36.18545, 4.616038], [36.168377, 4.61486], [36.198108, 4.547156], [36.203112, 4.515659], [36.195753, 4.478275], [36.207233, 4.46238], [36.208411, 4.442657], [36.188394, 4.339335], [36.214887, 4.285761], [36.214887, 4.229832], [36.223129, 4.214819], [36.216064, 4.199807], [36.236964, 4.182734], [36.244617, 4.145055], [36.242851, 4.123566], [36.224895, 4.087948], [36.216064, 4.032019], [36.198402, 3.979328], [36.181624, 3.961961], [36.18545, 3.942827], [36.219008, 3.879833], [36.246972, 3.779455], [36.264634, 3.765031], [36.265812, 3.753551], [36.246384, 3.694384], [36.235787, 3.683786], [36.216653, 3.681137], [36.211354, 3.658766], [36.20635, 3.540137], [36.216064, 3.456537], [36.244323, 3.370877], [36.238141, 3.346151], [36.22254, 3.322013], [36.236964, 3.298758], [36.291716, 3.243123], [36.306728, 3.191904], [36.326156, 3.186605], [36.34058, 3.161585], [36.375904, 3.123023], [36.388267, 3.076219], [36.388267, 3.032064], [36.40063, 3.010576], [36.532211, 2.901661], [36.5746, 2.894596], [36.657905, 2.898717], [36.689107, 2.881055], [36.69941, 2.850442], [36.697644, 2.769491], [36.709713, 2.730341]]]}}, {"type": "Feature", "properties": {"name": "Lake Razazah", "name_ar": "بحيرة الرزازة", "featurecla": "Alkaline Lake", "scalerank": 3}, "geometry": {"type": "Polygon", "coordinates": [[[43.898085, 32.703968], [43.88631, 32.601824], [43.834208, 32.561496], [43.802122, 32.546189], [43.768859, 32.505273], [43.757379, 32.517341], [43.740894, 32.511749], [43.748842, 32.526172], [43.734713, 32.560613], [43.727354, 32.560613], [43.720878, 32.546189], [43.713518, 32.546189], [43.706748, 32.566795], [43.699978, 32.560613], [43.682316, 32.5665], [43.677017, 32.540891], [43.669069, 32.533237], [43.656412, 32.538241], [43.651702, 32.55031], [43.651996, 32.58063], [43.679372, 32.58063], [43.663771, 32.587989], [43.61108, 32.574154], [43.631096, 32.594759], [43.583704, 32.607711], [43.573695, 32.590932], [43.537783, 32.595642], [43.498927, 32.612421], [43.445058, 32.679242], [43.429163, 32.710444], [43.439171, 32.731344], [43.42563, 32.738115], [43.434756, 32.752833], [43.411501, 32.806996], [43.42563, 32.799637], [43.449474, 32.836727], [43.44653, 32.847912], [43.432106, 32.842319], [43.419449, 32.862925], [43.405025, 32.868518], [43.405025, 32.875877], [43.439171, 32.888829], [43.472729, 32.875877], [43.472729, 32.882059], [43.455655, 32.883825], [43.455361, 32.889123], [43.469785, 32.909729], [43.486858, 32.912967], [43.494512, 32.944169], [43.453006, 32.985086], [43.457716, 32.997449], [43.486858, 33.026003], [43.50452, 33.018055], [43.517766, 33.021882], [43.526008, 33.033067], [43.529246, 33.046608], [43.521593, 33.104598], [43.534839, 33.114901], [43.535134, 33.07369], [43.555445, 33.039838], [43.62462, 33.012462], [43.616084, 32.99009], [43.644637, 32.947407], [43.666126, 32.890006], [43.732063, 32.775499], [43.754435, 32.752244], [43.795646, 32.744885], [43.82626, 32.724574], [43.898085, 32.703968]]]}}, {"type": "Feature", "properties": {"name": "Dead Sea", "name_ar": "البحر الميت", "featurecla": "Alkaline Lake", "scalerank": 3}, "geometry": {"type": "Polygon", "coordinates": [[[35.586419, 31.752878], [35.588185, 31.730506], [35.578471, 31.701364], [35.554628, 31.538286], [35.571995, 31.468228], [35.54462, 31.354014], [35.547563, 31.331937], [35.52372, 31.310154], [35.503703, 31.306327], [35.510473, 31.367555], [35.49134, 31.366966], [35.442181, 31.322223], [35.414805, 31.326639], [35.405974, 31.344889], [35.393611, 31.435848], [35.400675, 31.472349], [35.392728, 31.514149], [35.414805, 31.566251], [35.408035, 31.614821], [35.476621, 31.730506], [35.506941, 31.755821], [35.559043, 31.765535], [35.586419, 31.752878]]]}}, {"type": "Feature", "properties": {"name": "Lake Urmia", "name_ar": "بحيرة أرومية", "featurecla": "Alkaline Lake", "scalerank": 4}, "geometry": {"type": "Polygon", "coordinates": [[[45.910358, 37.388773], [45.908886, 37.362869], [45.875623, 37.374055], [45.834706, 37.356099], [45.823815, 37.349917], [45.814101, 37.32313], [45.748458, 37.284863], [45.717549, 37.285452], [45.702537, 37.294283], [45.695178, 37.307235], [45.700476, 37.32313], [45.65956, 37.309589], [45.623647, 37.263963], [45.618349, 37.192727], [45.600098, 37.14975], [45.585086, 37.131499], [45.566835, 37.123846], [45.532394, 37.144451], [45.512083, 37.144451], [45.503841, 37.142685], [45.501781, 37.130027], [45.462924, 37.121196], [45.395809, 37.196259], [45.371966, 37.199497], [45.356365, 37.210683], [45.338408, 37.251894], [45.31692, 37.26514], [45.303085, 37.336082], [45.282479, 37.363458], [45.307206, 37.371995], [45.324279, 37.390834], [45.292488, 37.474728], [45.262168, 37.504458], [45.282479, 37.555972], [45.282185, 37.573634], [45.248627, 37.604248], [45.262757, 37.614845], [45.234792, 37.669008], [45.239208, 37.680194], [45.262168, 37.695795], [45.253043, 37.760261], [45.220663, 37.805887], [45.183279, 37.82296], [45.168855, 37.838562], [45.1456, 37.829731], [45.05994, 37.857695], [45.062884, 37.868587], [45.047871, 37.953953], [45.05994, 37.987804], [45.091437, 38.01518], [45.138535, 38.023128], [45.181218, 38.038435], [45.193287, 38.059335], [45.199469, 38.113498], [45.193287, 38.13116], [45.172976, 38.152354], [45.172681, 38.165895], [45.165911, 38.165895], [45.154431, 38.141168], [45.140007, 38.129982], [45.124994, 38.134986], [45.111454, 38.159124], [45.05052, 38.12645], [45.028737, 38.124389], [45.003716, 38.13793], [44.997535, 38.159419], [45.003716, 38.175609], [45.015197, 38.172371], [45.033153, 38.203279], [45.049343, 38.207106], [45.047282, 38.250377], [45.094086, 38.268039], [45.308383, 38.272454], [45.361663, 38.265978], [45.417298, 38.225062], [45.465279, 38.176197], [45.484707, 38.165895], [45.493538, 38.156475], [45.502664, 38.095542], [45.473816, 38.042556], [45.486179, 38.033431], [45.47676, 38.003406], [45.487945, 37.987804], [45.453799, 37.973675], [45.467634, 37.960134], [45.434077, 37.935996], [45.406112, 37.900967], [45.412883, 37.815896], [45.421713, 37.798234], [45.453505, 37.761438], [45.479114, 37.750547], [45.494127, 37.727292], [45.517971, 37.737595], [45.522092, 37.761438], [45.64543, 37.767326], [45.711073, 37.724643], [45.741982, 37.711691], [45.755522, 37.727292], [45.760527, 37.699622], [45.776128, 37.678722], [45.796733, 37.665181], [45.789669, 37.641338], [45.77289, 37.634273], [45.662798, 37.644576], [45.659854, 37.640455], [45.678105, 37.621615], [45.705186, 37.613373], [45.714017, 37.576283], [45.725792, 37.56392], [45.765825, 37.53154], [45.792907, 37.525947], [45.800266, 37.506519], [45.810274, 37.500632], [45.811452, 37.479732], [45.831468, 37.450001], [45.857078, 37.423508], [45.890341, 37.409085], [45.910358, 37.388773]], [[45.55771, 37.340498], [45.556532, 37.351978], [45.529745, 37.397016], [45.529745, 37.407024], [45.542697, 37.412028], [45.538282, 37.42292], [45.510611, 37.439404], [45.496776, 37.43646], [45.494127, 37.426158], [45.508551, 37.412028], [45.48824, 37.407024], [45.483824, 37.400254], [45.501781, 37.384652], [45.532394, 37.374055], [45.542697, 37.343736], [45.55771, 37.340498]], [[45.66633, 37.480321], [45.663975, 37.501809], [45.647491, 37.507991], [45.604219, 37.507991], [45.589207, 37.528302], [45.566835, 37.506813], [45.570073, 37.49445], [45.563891, 37.487091], [45.604219, 37.472078], [45.611578, 37.459715], [45.652495, 37.487091], [45.66633, 37.480321]]]}}, {"type": "Feature", "properties": {"name": "Sarygamysh Köli", "name_ar": "ساريغاميش كولي", "featurecla": "Alkaline Lake", "scalerank": 4}, "geometry": {"type": "Polygon", "coordinates": [[[57.883619, 41.816893], [57.886268, 41.807473], [57.854771, 41.775682], [57.853888, 41.682663], [57.801491, 41.668239], [57.708472, 41.658819], [57.687867, 41.648222], [57.664318, 41.615842], [57.618397, 41.595237], [57.599263, 41.595237], [57.558641, 41.608189], [57.494469, 41.575514], [57.454436, 41.597297], [57.435597, 41.599358], [57.387615, 41.555203], [57.36907, 41.542546], [57.352292, 41.540485], [57.335807, 41.546372], [57.241611, 41.612899], [57.228659, 41.657053], [57.236606, 41.692083], [57.232191, 41.706801], [57.162427, 41.750072], [57.137111, 41.796582], [57.127103, 41.800114], [57.117978, 41.794227], [57.079416, 41.720636], [57.074706, 41.667356], [57.067347, 41.665295], [57.045564, 41.693849], [57.033495, 41.739475], [57.058222, 41.796876], [57.072057, 41.947002], [57.197162, 42.240483], [57.229247, 42.288464], [57.264571, 42.31378], [57.307254, 42.331441], [57.364655, 42.345277], [57.407043, 42.344099], [57.453258, 42.30436], [57.475336, 42.296118], [57.517724, 42.292585], [57.570415, 42.270802], [57.613981, 42.239894], [57.636942, 42.194562], [57.645184, 42.122149], [57.604562, 42.113906], [57.596025, 42.094773], [57.597791, 42.069752], [57.621929, 42.052679], [57.665201, 42.041787], [57.726723, 42.008818], [57.723779, 41.983503], [57.68404, 41.964958], [57.678447, 41.954655], [57.675503, 41.920509], [57.680213, 41.903142], [57.695226, 41.896077], [57.762341, 41.889601], [57.883619, 41.816893]]]}}, {"type": "Feature", "properties": {"name": "Lake Tuz", "name_ar": "بحيرة طوز", "featurecla": "Alkaline Lake", "scalerank": 4}, "geometry": {"type": "Polygon", "coordinates": [[[33.420488, 38.954496], [33.420488, 38.940367], [33.434323, 38.913285], [33.413718, 38.867659], [33.426081, 38.850586], [33.54677, 38.752857], [33.555307, 38.761099], [33.547359, 38.803782], [33.571497, 38.891797], [33.578267, 38.891797], [33.584154, 38.846465], [33.629487, 38.786414], [33.64391, 38.731368], [33.686299, 38.659543], [33.698662, 38.646886], [33.742817, 38.638349], [33.742817, 38.63099], [33.711025, 38.62157], [33.629487, 38.615094], [33.598873, 38.597432], [33.590042, 38.550629], [33.568259, 38.531789], [33.541472, 38.484397], [33.517039, 38.498232], [33.497906, 38.528846], [33.462582, 38.538854], [33.420782, 38.563286], [33.354845, 38.582714], [33.296561, 38.638349], [33.153205, 38.70723], [33.138487, 38.738139], [33.146729, 38.77935], [33.20207, 38.904749], [33.219437, 38.92035], [33.298916, 38.929475], [33.322465, 38.938306], [33.332473, 38.95744], [33.332473, 38.995413], [33.30392, 39.049281], [33.317755, 39.090787], [33.289202, 39.117868], [33.28302, 39.131703], [33.338066, 39.152309], [33.442271, 39.044866], [33.47259, 38.980989], [33.420488, 38.954496]]]}}, {"type": "Feature", "properties": {"name": "Lake Van", "name_ar": "بحيرة وان", "featurecla": "Alkaline Lake", "scalerank": 4}, "geometry": {"type": "Polygon", "coordinates": [[[43.104185, 38.314254], [43.019113, 38.316609], [42.994387, 38.335448], [42.945522, 38.336626], [42.93522, 38.343985], [42.953176, 38.377542], [42.936103, 38.392849], [42.918441, 38.391966], [42.911376, 38.40168], [42.897835, 38.405801], [42.9049, 38.432883], [42.925211, 38.418753], [42.924328, 38.427879], [42.939046, 38.432883], [42.925211, 38.453488], [42.910787, 38.446718], [42.870165, 38.453488], [42.877524, 38.460848], [42.872226, 38.471739], [42.891065, 38.474094], [42.870165, 38.494405], [42.879879, 38.500587], [42.876347, 38.505885], [42.868399, 38.504708], [42.856624, 38.4738], [42.839257, 38.469678], [42.801873, 38.481453], [42.798046, 38.456432], [42.791276, 38.446718], [42.773908, 38.440242], [42.691781, 38.43877], [42.663227, 38.472328], [42.651747, 38.478804], [42.598761, 38.485574], [42.583749, 38.493522], [42.575801, 38.507946], [42.541655, 38.494405], [42.520755, 38.474094], [42.501327, 38.47115], [42.474834, 38.484102], [42.466003, 38.494405], [42.46983, 38.508829], [42.457172, 38.516777], [42.40978, 38.496171], [42.39565, 38.495877], [42.38417, 38.507946], [42.369746, 38.497643], [42.327946, 38.48734], [42.308224, 38.487635], [42.299688, 38.507651], [42.309696, 38.517954], [42.349729, 38.528551], [42.39094, 38.577121], [42.420082, 38.581242], [42.425087, 38.586835], [42.408014, 38.607441], [42.410663, 38.618038], [42.493968, 38.624808], [42.472774, 38.638349], [42.466003, 38.658955], [42.435389, 38.703698], [42.438333, 38.720771], [42.467769, 38.736667], [42.600822, 38.778466], [42.709148, 38.793185], [42.733286, 38.803487], [42.801873, 38.792596], [42.809821, 38.785531], [42.91638, 38.796717], [42.956414, 38.784354], [43.09241, 38.804076], [43.175715, 38.844404], [43.206918, 38.891797], [43.177776, 38.900333], [43.145101, 38.899156], [43.137448, 38.905926], [43.131266, 38.893563], [43.110072, 38.877962], [43.143924, 38.880316], [43.147751, 38.865304], [43.1295, 38.851763], [43.09712, 38.858239], [43.072099, 38.892974], [43.065917, 38.925648], [43.072099, 38.930947], [43.110661, 38.933891], [43.16188, 38.94802], [43.203385, 38.940072], [43.271089, 38.962444], [43.315538, 38.954202], [43.308768, 38.980989], [43.327313, 38.968331], [43.350567, 38.967448], [43.353511, 38.984816], [43.37706, 38.987759], [43.401492, 39.001594], [43.542199, 38.980989], [43.59018, 38.980989], [43.61314, 38.965093], [43.632274, 38.963916], [43.659061, 38.946843], [43.644637, 38.940072], [43.659061, 38.932713], [43.534839, 38.913285], [43.521299, 38.885321], [43.501282, 38.871191], [43.428868, 38.858828], [43.412678, 38.850291], [43.390012, 38.822621], [43.369701, 38.840872], [43.339087, 38.845876], [43.308768, 38.835573], [43.295227, 38.806725], [43.291989, 38.779055], [43.244596, 38.76993], [43.219575, 38.754917], [43.211039, 38.720771], [43.176304, 38.685742], [43.155993, 38.637466], [43.133032, 38.624808], [43.08299, 38.611856], [43.08299, 38.604203], [43.089761, 38.604203], [43.123907, 38.61951], [43.175715, 38.624808], [43.190728, 38.620687], [43.216632, 38.586835], [43.271089, 38.569468], [43.316127, 38.542386], [43.325252, 38.486457], [43.306413, 38.439653], [43.267262, 38.440242], [43.184252, 38.389023], [43.162469, 38.382841], [43.147456, 38.365474], [43.150694, 38.322202], [43.104185, 38.314254]]]}}, {"type": "Feature", "properties": {"name": "Lake Abaya", "name_ar": "بحيرة أبايا", "featurecla": "Alkaline Lake", "scalerank": 5}, "geometry": {"type": "Polygon", "coordinates": [[[37.963998, 6.593281], [38.011097, 6.622129], [38.024343, 6.585039], [38.055546, 6.561196], [38.074385, 6.55472], [38.091752, 6.55943], [38.110297, 6.586805], [38.138851, 6.594459], [38.150036, 6.550304], [38.136201, 6.511154], [38.108531, 6.487016], [38.122366, 6.449926], [38.094402, 6.449926], [38.083216, 6.400179], [38.036118, 6.370448], [38.00727, 6.315107], [38.002854, 6.255646], [37.972535, 6.230919], [37.938683, 6.216495], [37.914251, 6.175284], [37.88452, 6.144965], [37.862737, 6.109936], [37.850079, 6.049885], [37.836539, 6.059011], [37.833301, 6.089036], [37.820054, 6.07108], [37.813873, 6.044292], [37.749996, 6.022215], [37.727918, 5.999843], [37.705547, 6.011029], [37.685235, 6.010146], [37.68082, 6.026631], [37.693183, 6.058716], [37.694361, 6.09404], [37.707313, 6.117], [37.755589, 6.144376], [37.757649, 6.157623], [37.767363, 6.167631], [37.804159, 6.177934], [37.827708, 6.200011], [37.827708, 6.188825], [37.849785, 6.183527], [37.844486, 6.144376], [37.875689, 6.198539], [37.87775, 6.261239], [37.896589, 6.275663], [37.883343, 6.305688], [37.886581, 6.345721], [37.8542, 6.447277], [37.872157, 6.511154], [37.906597, 6.515569], [37.963998, 6.593281]]]}}, {"type": "Feature", "properties": {"name": "Dead Sea", "name_ar": "البحر الميت", "featurecla": "Alkaline Lake", "scalerank": 5}, "geometry": {"type": "Polygon", "coordinates": [[[35.526369, 31.188876], [35.531079, 31.169742], [35.503703, 31.139129], [35.517832, 31.110281], [35.485452, 31.088498], [35.459254, 31.087321], [35.400675, 31.100861], [35.388312, 31.141778], [35.363586, 31.17563], [35.358581, 31.210365], [35.369767, 31.235386], [35.400675, 31.230381], [35.421281, 31.251576], [35.461314, 31.219196], [35.526369, 31.188876]]]}}, {"type": "Feature", "properties": {"name": "Lake Hammar", "name_ar": "هور الحمّار", "featurecla": "Alkaline Lake", "scalerank": 5}, "geometry": {"type": "MultiPolygon", "coordinates": [[[[46.731928, 30.757633], [46.769901, 30.750568], [46.769901, 30.743798], [46.756066, 30.743798], [46.762248, 30.724075], [46.724275, 30.732612], [46.687185, 30.750568], [46.731928, 30.757633]]], [[[47.62444, 30.704647], [47.633271, 30.68257], [47.540841, 30.661964], [47.530244, 30.676094], [47.516997, 30.661964], [47.479907, 30.659315], [47.475492, 30.648129], [47.461363, 30.652839], [47.427805, 30.648129], [47.404256, 30.657843], [47.39984, 30.685808], [47.388949, 30.700232], [47.190842, 30.709651], [47.1199, 30.736733], [47.091936, 30.737616], [47.104888, 30.755278], [47.105182, 30.761459], [47.095468, 30.764403], [47.068092, 30.752923], [47.005392, 30.741737], [46.99038, 30.732906], [47.002743, 30.724075], [46.985081, 30.71966], [46.968303, 30.730257], [46.982138, 30.750568], [46.934451, 30.758221], [46.925031, 30.766169], [46.934156, 30.779416], [46.926797, 30.792368], [46.908252, 30.797372], [46.883231, 30.791779], [46.844964, 30.764403], [46.906486, 30.743798], [46.910018, 30.729374], [46.858505, 30.709651], [46.82848, 30.71495], [46.808463, 30.722898], [46.790212, 30.743798], [46.819943, 30.765875], [46.851734, 30.778533], [46.851734, 30.784714], [46.823475, 30.792073], [46.796688, 30.784714], [46.782853, 30.799138], [46.804047, 30.819449], [46.804047, 30.827103], [46.716033, 30.810324], [46.70779, 30.819449], [46.69425, 30.819449], [46.69425, 30.827103], [46.735166, 30.846825], [46.72663, 30.864193], [46.691306, 30.875967], [46.680414, 30.888625], [46.72663, 30.890097], [46.749001, 30.895689], [46.762248, 30.908936], [46.774905, 30.904226], [46.796688, 30.928953], [46.789918, 30.908053], [46.795216, 30.897161], [46.804342, 30.895395], [46.810818, 30.908936], [46.806991, 30.924243], [46.817294, 30.932779], [46.831129, 30.932191], [46.845258, 30.911291], [46.900304, 30.915118], [46.892945, 30.896573], [46.900304, 30.88156], [46.906486, 30.902165], [46.968303, 30.874201], [46.961532, 30.86066], [46.980372, 30.857422], [47.030413, 30.819449], [47.023643, 30.812679], [47.04366, 30.807086], [47.088698, 30.840055], [47.11313, 30.837111], [47.122255, 30.830635], [47.091936, 30.827103], [47.091936, 30.819449], [47.111952, 30.812679], [47.13609, 30.819155], [47.153458, 30.805908], [47.173769, 30.816506], [47.192314, 30.809441], [47.22175, 30.778533], [47.205854, 30.773528], [47.202322, 30.764403], [47.207621, 30.757633], [47.228226, 30.762637], [47.255602, 30.753217], [47.269437, 30.758221], [47.31212, 30.744092], [47.340673, 30.749979], [47.393953, 30.815328], [47.403667, 30.819449], [47.503457, 30.812679], [47.514642, 30.799138], [47.482557, 30.775883], [47.437519, 30.758221], [47.379529, 30.758221], [47.398074, 30.734378], [47.426628, 30.730257], [47.498452, 30.744681], [47.528478, 30.741737], [47.532304, 30.732317], [47.540841, 30.730257], [47.582052, 30.735555], [47.599125, 30.730257], [47.599125, 30.724075], [47.571749, 30.730257], [47.581757, 30.716716], [47.62444, 30.704647]]]]}}, {"type": "Feature", "properties": {"name": "Lake Assal", "name_ar": "بحيرة عسل", "featurecla": "Alkaline Lake", "scalerank": 5}, "geometry": {"type": "Polygon", "coordinates": [[[42.44893, 11.674595], [42.411252, 11.624553], [42.384464, 11.692257], [42.422143, 11.711096], [42.44893, 11.674595]]]}}, {"type": "Feature", "properties": {"name": "Chew Bahir", "name_ar": "تشيو باهير", "featurecla": "Alkaline Lake", "scalerank": 7}, "geometry": {"type": "Polygon", "coordinates": [[[36.983766, 4.886853], [37.001428, 4.806491], [36.992008, 4.711117], [36.984354, 4.674027], [36.968459, 4.639587], [36.904876, 4.561286], [36.881327, 4.552749], [36.823632, 4.549217], [36.79655, 4.541564], [36.768291, 4.52243], [36.740621, 4.478864], [36.732379, 4.476215], [36.720604, 4.502413], [36.719427, 4.539209], [36.737089, 4.590722], [36.747686, 4.65666], [36.790074, 4.76322], [36.792429, 4.809141], [36.800083, 4.830923], [36.881033, 4.780293], [36.89634, 4.788829], [36.923127, 4.838577], [36.955212, 4.855356], [36.960805, 4.884792], [36.969931, 4.891268], [36.983766, 4.886853]]]}}, {"type": "Feature", "properties": {"name": "Lake Chamo", "name_ar": "بحيرة شامو", "featurecla": "Alkaline Lake", "scalerank": 7}, "geometry": {"type": "Polygon", "coordinates": [[[37.726446, 5.940676], [37.72939, 5.905647], [37.723503, 5.854133], [37.704958, 5.784075], [37.660215, 5.767001], [37.596926, 5.717548], [37.555421, 5.705479], [37.556598, 5.748751], [37.547179, 5.782014], [37.563074, 5.817043], [37.605757, 5.872089], [37.59987, 5.888868], [37.616649, 5.900054], [37.611056, 5.916538], [37.633722, 5.932728], [37.658448, 5.935966], [37.688768, 5.96658], [37.726446, 5.940676]]]}}, {"type": "Feature", "properties": {"name": "Lake Abbe", "name_ar": "بحيرة آبي", "featurecla": "Alkaline Lake", "scalerank": 7}, "geometry": {"type": "Polygon", "coordinates": [[[41.8655, 11.22775], [41.882279, 11.206556], [41.874331, 11.171821], [41.842246, 11.133848], [41.772187, 11.079685], [41.730682, 11.102057], [41.697124, 11.139441], [41.680051, 11.183007], [41.687116, 11.224512], [41.720968, 11.271022], [41.744222, 11.28574], [41.773364, 11.288684], [41.798385, 11.277498], [41.8655, 11.22775]]]}}, {"type": "Feature", "properties": {"name": "Aydar Ko‘l", "name_ar": "بحيرة أيدار", "featurecla": "Alkaline Lake", "scalerank": 7}, "geometry": {"type": "Polygon", "coordinates": [[[68.033883, 41.04301], [68.058609, 41.055079], [68.013866, 40.934389], [67.975304, 40.861387], [67.904657, 40.814583], [67.846078, 40.818999], [67.830477, 40.812523], [67.816936, 40.791623], [67.80369, 40.78338], [67.789266, 40.783675], [67.748938, 40.806341], [67.708316, 40.809579], [67.666516, 40.793389], [67.617946, 40.75836], [67.587921, 40.748646], [67.53052, 40.752178], [67.501967, 40.747762], [67.485188, 40.728923], [67.591748, 40.632077], [67.602345, 40.610294], [67.6047, 40.550538], [67.630604, 40.512566], [67.627366, 40.501085], [67.60676, 40.497259], [67.528165, 40.531699], [67.490192, 40.565551], [67.421605, 40.595576], [67.364499, 40.644735], [67.326231, 40.668578], [67.309453, 40.688595], [67.329469, 40.746585], [67.32211, 40.766013], [67.302093, 40.771312], [67.251757, 40.769251], [67.179049, 40.798099], [67.156089, 40.801042], [67.100748, 40.775138], [67.074844, 40.776021], [67.047468, 40.78603], [66.884979, 40.883464], [66.852599, 40.893473], [66.133173, 40.993262], [66.114629, 41.003565], [66.128464, 41.017694], [66.229136, 41.013868], [66.275646, 41.026525], [66.348059, 41.009452], [66.443728, 41.002682], [66.49377, 41.019461], [66.544989, 41.00592], [66.769294, 40.993851], [66.835821, 41.002387], [66.984769, 41.001504], [67.036283, 40.993262], [67.084853, 40.977072], [67.11635, 40.953229], [67.197888, 40.961471], [67.267358, 40.946753], [67.273834, 40.940865], [67.272363, 40.917316], [67.289141, 40.891118], [67.328586, 40.880226], [67.408359, 40.87375], [67.398939, 40.859621], [67.353901, 40.831362], [67.372741, 40.82047], [67.53994, 40.820765], [67.764834, 40.881698], [67.905245, 40.952051], [67.956759, 40.990613], [68.020342, 41.060966], [68.033883, 41.04301]]]}}, {"type": "Feature", "properties": {"name": "Great Bitter Lake", "name_ar": "البحيرات المرة", "featurecla": "Alkaline Lake", "scalerank": 8}, "geometry": {"type": "Polygon", "coordinates": [[[32.560062, 30.179502], [32.543577, 30.209527], [32.536807, 30.203345], [32.536807, 30.229838], [32.53092, 30.229249], [32.491769, 30.265456], [32.457623, 30.240729], [32.398161, 30.280174], [32.344293, 30.298719], [32.296606, 30.3467], [32.310441, 30.380847], [32.305731, 30.399686], [32.326337, 30.413227], [32.372257, 30.428534], [32.386092, 30.422352], [32.447615, 30.3467], [32.454091, 30.313143], [32.449969, 30.30284], [32.459683, 30.291949], [32.48912, 30.277819], [32.526799, 30.272815], [32.550642, 30.250443], [32.557412, 30.257802], [32.564183, 30.250443], [32.557412, 30.244262], [32.571542, 30.236608], [32.563594, 30.234548], [32.573014, 30.211882], [32.569481, 30.190099], [32.560062, 30.179502]]]}}, {"type": "Feature", "properties": {"name": "South Aral Sea", "name_ar": "بحر آرال الجنوبي", "featurecla": "Lake", "scalerank": 0}, "geometry": {"type": "Polygon", "coordinates": [[[58.304942, 45.049539], [58.357029, 45.103283], [58.37249, 45.130523], [58.386478, 45.202673], [58.410037, 45.23433], [58.407152, 45.252121], [58.417007, 45.290684], [58.469119, 45.348444], [58.499304, 45.364273], [58.549367, 45.40771], [58.552552, 45.464575], [58.57403, 45.532132], [58.592644, 45.548691], [58.604361, 45.57914], [58.638358, 45.590201], [58.635781, 45.639528], [58.647192, 45.668977], [58.652714, 45.721985], [58.668911, 45.741863], [58.677009, 45.784932], [58.711704, 45.834903], [58.745938, 45.851468], [58.758454, 45.844105], [58.7787, 45.848155], [58.838334, 45.834166], [58.839438, 45.841897], [58.821401, 45.861407], [58.81367, 45.881653], [58.822505, 45.903371], [58.849377, 45.918096], [58.870728, 45.921409], [58.892814, 45.91147], [58.989259, 45.898218], [59.017236, 45.907788], [59.041531, 45.895641], [59.059936, 45.894536], [59.065458, 45.899322], [59.069139, 45.931716], [59.079078, 45.943495], [59.116257, 45.951225], [59.149019, 45.946808], [59.172578, 45.937237], [59.179204, 45.925826], [59.196873, 45.956011], [59.240311, 45.993926], [59.280066, 46.006074], [59.302889, 46.002393], [59.309793, 45.993752], [59.309515, 45.977361], [59.301417, 45.95822], [59.283379, 45.929139], [59.243992, 45.892328], [59.224744, 45.882957], [59.172578, 45.874843], [59.150328, 45.877714], [59.104846, 45.896745], [59.098588, 45.88607], [59.077883, 45.878081], [59.045212, 45.875027], [59.019215, 45.843657], [58.986656, 45.819603], [58.914165, 45.794779], [58.903121, 45.739378], [58.901649, 45.689315], [58.869437, 45.596097], [58.807413, 45.570047], [58.766184, 45.562685], [58.75146, 45.546488], [58.735263, 45.506732], [58.671948, 45.459614], [58.638082, 45.353598], [58.629247, 45.263779], [58.663113, 45.204881], [58.683727, 45.148929], [58.682255, 45.129787], [58.670475, 45.103283], [58.643971, 45.072362], [58.54679, 45.007574], [58.568877, 45.004629], [58.588019, 44.989905], [58.592436, 44.973708], [58.588019, 44.950149], [58.568877, 44.929535], [58.567036, 44.915178], [58.578816, 44.896037], [58.609737, 44.876895], [58.622989, 44.854808], [58.624462, 44.817997], [58.61121, 44.790021], [58.595013, 44.772352], [58.562619, 44.772352], [58.578816, 44.756155], [58.54495, 44.657501], [58.524336, 44.569155], [58.483107, 44.504367], [58.416847, 44.443997], [58.364275, 44.42472], [58.344299, 44.423487], [58.260032, 44.431481], [58.244572, 44.441788], [58.235001, 44.46093], [58.236776, 44.524463], [58.262241, 44.557375], [58.276229, 44.564737], [58.302733, 44.56032], [58.313776, 44.570627], [58.321139, 44.603021], [58.316163, 44.630032], [58.237946, 44.765726], [58.221012, 44.84671], [58.222485, 44.869533], [58.236509, 44.908195], [58.281383, 44.963769], [58.2858, 44.988064], [58.300157, 45.015631], [58.304942, 45.049539]]]}}, {"type": "Feature", "properties": {"name": "Barsakelmes Lake", "name_ar": "بحيرة بارساكيلميس", "featurecla": "Lake", "scalerank": 6}, "geometry": {"type": "Polygon", "coordinates": [[[59.591672, 46.209087], [59.504062, 46.318784], [59.547499, 46.326882], [59.570322, 46.323937], [59.589463, 46.304059], [59.660141, 46.31952], [59.730822, 46.321671], [59.75953, 46.309213], [59.784562, 46.284181], [59.800759, 46.256941], [59.80545, 46.243873], [59.802231, 46.195835], [59.817692, 46.139882], [59.813275, 46.123685], [59.797814, 46.109697], [59.728654, 46.082839], [59.591672, 46.209087]]]}}, {"type": "Feature", "properties": {"name": "North Aral Sea", "name_ar": "بحر آرال الشمالي", "featurecla": "Lake", "scalerank": 0}, "geometry": {"type": "Polygon", "coordinates": [[[60.752342, 46.117724], [60.807538, 46.158764], [60.82255, 46.184668], [60.824808, 46.201046], [60.810026, 46.233566], [60.728305, 46.349889], [60.722416, 46.374185], [60.705814, 46.375191], [60.684868, 46.339582], [60.66499, 46.327066], [60.637014, 46.329275], [60.634805, 46.318232], [60.615664, 46.327803], [60.579589, 46.2932], [60.560447, 46.295409], [60.471364, 46.330747], [60.41762, 46.368295], [60.348415, 46.402897], [60.331482, 46.405106], [60.287309, 46.382283], [60.196754, 46.374921], [60.169882, 46.354675], [60.133439, 46.356515], [60.077118, 46.381915], [60.049878, 46.403633], [60.054663, 46.408419], [59.995029, 46.428297], [59.988403, 46.437868], [59.97736, 46.481305], [59.989876, 46.550509], [60.001655, 46.57186], [60.03635, 46.601125], [60.115861, 46.619162], [60.132426, 46.634255], [60.199054, 46.665544], [60.237338, 46.695729], [60.270468, 46.703091], [60.286665, 46.700146], [60.332942, 46.669227], [60.367649, 46.616953], [60.410868, 46.482523], [60.421025, 46.519312], [60.453921, 46.573614], [60.450658, 46.618426], [60.459309, 46.627537], [60.476978, 46.618426], [60.472929, 46.606094], [60.558698, 46.565602], [60.580049, 46.563025], [60.606185, 46.56597], [60.670604, 46.589161], [60.696595, 46.612944], [60.758214, 46.634439], [60.765577, 46.642537], [60.635265, 46.715423], [60.525568, 46.750762], [60.519679, 46.769903], [60.524832, 46.777266], [60.580049, 46.783892], [60.605817, 46.775793], [60.632321, 46.775793], [60.674285, 46.761805], [60.717722, 46.755179], [60.788399, 46.755179], [60.810767, 46.747149], [60.822266, 46.727203], [60.819321, 46.712478], [60.794289, 46.663887], [60.776068, 46.581431], [60.784166, 46.566706], [60.812879, 46.547565], [60.839383, 46.508545], [60.892391, 46.473206], [60.946871, 46.459954], [61.083808, 46.459954], [61.133871, 46.449647], [61.197709, 46.468053], [61.226635, 46.468053], [61.244304, 46.476151], [61.267127, 46.49971], [61.267863, 46.513698], [61.230316, 46.547565], [61.236206, 46.569651], [61.206021, 46.570387], [61.206757, 46.579958], [61.216328, 46.588057], [61.233261, 46.580695], [61.296576, 46.61088], [61.30173, 46.632966], [61.314981, 46.647691], [61.366517, 46.649163], [61.384186, 46.663887], [61.409218, 46.672722], [61.426887, 46.657998], [61.456336, 46.672722], [61.528486, 46.677139], [61.506399, 46.638856], [61.479895, 46.627076], [61.453391, 46.602045], [61.450446, 46.584376], [61.326761, 46.498974], [61.310564, 46.475415], [61.279643, 46.479832], [61.276985, 46.429339], [61.296576, 46.409155], [61.300257, 46.38486], [61.290256, 46.386439], [61.280379, 46.329643], [61.265655, 46.30682], [61.25724, 46.306454], [61.231789, 46.250867], [61.217064, 46.236879], [61.165713, 46.215529], [61.120067, 46.217001], [61.095035, 46.19197], [61.040555, 46.18019], [61.003233, 46.18019], [60.976685, 46.16988], [60.946319, 46.140434], [60.868279, 46.112458], [60.862482, 46.090003], [60.782878, 46.085954], [60.752342, 46.117724]]]}}, {"type": "Feature", "properties": {"featurecla": "Lake", "scalerank": 9}, "geometry": {"type": "Polygon", "coordinates": [[[59.808581, 46.013804], [59.865776, 46.04017], [59.981748, 46.060336], [60.006395, 46.050477], [60.023466, 46.031105], [60.026411, 46.017117], [60.011318, 45.970551], [59.960151, 45.943311], [59.953157, 45.95141], [59.962165, 45.961878], [59.945656, 45.977775], [59.943448, 46.007592], [59.934613, 46.016427], [59.921729, 46.022869], [59.892786, 46.000184], [59.860761, 45.987208], [59.808581, 46.013804]]]}}]}