{"type": "FeatureCollection", "features": [{"type": "Feature", "properties": {"name": "Ra’s Banäs", "name_ar": "رأس باناس", "featurecla": "cape", "scalerank": 5, "min_zoom": 6, "name_en": "Ras Banas"}, "geometry": {"type": "Point", "coordinates": [35.778087, 23.950629]}}, {"type": "Feature", "properties": {"name": "Gees Gwardafuy", "name_ar": "رأس عسير", "featurecla": "cape", "scalerank": 3, "min_zoom": 5.1, "name_en": "Cape Guardafui"}, "geometry": {"type": "Point", "coordinates": [51.258314, 11.822029]}}, {"type": "Feature", "properties": {"name": "Ra’s Fartak", "name_ar": "رأس فرتك", "featurecla": "cape", "scalerank": 5, "min_zoom": 6, "name_en": "Ra’s Fartak"}, "geometry": {"type": "Point", "coordinates": [52.23897, 15.657952]}}, {"type": "Feature", "properties": {"name": "Ra’s Kasr", "name_ar": "رأس قصر", "featurecla": "cape", "scalerank": 5, "min_zoom": 6, "name_en": "Ras Kasar"}, "geometry": {"type": "Point", "coordinates": [38.580277, 18.075168]}}]}