{"type": "FeatureCollection", "features": [{"type": "Feature", "properties": {"name": "Burdur", "featurecla": "Admin-1 capital", "scalerank": 10, "min_zoom": 7, "pop_max": 66158}, "geometry": {"type": "Point", "coordinates": [30.283335, 37.71666]}}, {"type": "Feature", "properties": {"name": "Kırşehir", "featurecla": "Admin-1 capital", "scalerank": 10, "min_zoom": 7, "pop_max": 94336}, "geometry": {"type": "Point", "coordinates": [34.171003, 39.141999]}}, {"type": "Feature", "properties": {"name": "Nevşehir", "featurecla": "Admin-1 capital", "scalerank": 10, "min_zoom": 7, "pop_max": 75527}, "geometry": {"type": "Point", "coordinates": [34.723999, 38.624004]}}, {"type": "Feature", "properties": {"name": "Antakya", "featurecla": "Admin-1 capital", "scalerank": 10, "min_zoom": 9, "pop_max": 154803}, "geometry": {"type": "Point", "coordinates": [36.116677, 36.233334]}}, {"type": "Feature", "properties": {"name": "Bingöl", "featurecla": "Admin-1 capital", "scalerank": 10, "min_zoom": 7, "pop_max": 80568}, "geometry": {"type": "Point", "coordinates": [40.498003, 38.885004]}}, {"type": "Feature", "properties": {"name": "Bitlis", "featurecla": "Admin-1 capital", "scalerank": 10, "min_zoom": 7, "pop_max": 62811}, "geometry": {"type": "Point", "coordinates": [42.122998, 38.394]}}, {"type": "Feature", "properties": {"name": "Niğde", "featurecla": "Admin-1 capital", "scalerank": 10, "min_zoom": 7, "pop_max": 91039}, "geometry": {"type": "Point", "coordinates": [34.694002, 37.976004]}}, {"type": "Feature", "properties": {"name": "Yozgat", "featurecla": "Admin-1 capital", "scalerank": 10, "min_zoom": 7, "pop_max": 87881}, "geometry": {"type": "Point", "coordinates": [34.814997, 39.817998]}}, {"type": "Feature", "properties": {"name": "Siirt", "featurecla": "Admin-1 capital", "scalerank": 10, "min_zoom": 7, "pop_max": 114034}, "geometry": {"type": "Point", "coordinates": [41.932999, 37.944]}}, {"type": "Feature", "properties": {"name": "Tunceli", "featurecla": "Admin-1 capital", "scalerank": 10, "min_zoom": 7, "pop_max": 29062}, "geometry": {"type": "Point", "coordinates": [39.533302, 39.1167]}}, {"type": "Feature", "properties": {"name": "Dar'a", "featurecla": "Admin-1 capital", "scalerank": 10, "min_zoom": 8, "pop_max": 146481}, "geometry": {"type": "Point", "coordinates": [36.105004, 32.625]}}, {"type": "Feature", "properties": {"name": "An Nabk", "featurecla": "Admin-1 capital", "scalerank": 10, "min_zoom": 7, "pop_max": 10000}, "geometry": {"type": "Point", "coordinates": [37.333297, 31.333302]}}, {"type": "Feature", "properties": {"name": "Al Mafraq", "featurecla": "Admin-1 capital", "scalerank": 10, "min_zoom": 9, "pop_max": 57118}, "geometry": {"type": "Point", "coordinates": [36.233298, 32.283297]}}, {"type": "Feature", "properties": {"name": "At Tafilah", "featurecla": "Admin-1 capital", "scalerank": 10, "min_zoom": 8, "pop_max": 25429}, "geometry": {"type": "Point", "coordinates": [35.600005, 30.833334]}}, {"type": "Feature", "properties": {"name": "Ma'an", "featurecla": "Admin-1 capital", "scalerank": 10, "min_zoom": 7, "pop_max": 50350}, "geometry": {"type": "Point", "coordinates": [35.736004, 30.192003]}}, {"type": "Feature", "properties": {"name": "Shibin el Kom", "featurecla": "Admin-1 capital", "scalerank": 10, "min_zoom": 8, "pop_max": 182900}, "geometry": {"type": "Point", "coordinates": [31.006953, 30.554482]}}, {"type": "Feature", "properties": {"name": "Benha", "featurecla": "Admin-1 capital", "scalerank": 10, "min_zoom": 8, "pop_max": 167029}, "geometry": {"type": "Point", "coordinates": [31.183336, 30.466665]}}, {"type": "Feature", "properties": {"name": "Zagazig", "featurecla": "Admin-1 capital", "scalerank": 10, "min_zoom": 8, "pop_max": 285097}, "geometry": {"type": "Point", "coordinates": [31.51666, 30.583332]}}, {"type": "Feature", "properties": {"name": "Kafr el Sheikh", "featurecla": "Admin-1 capital", "scalerank": 10, "min_zoom": 9, "pop_max": 143970}, "geometry": {"type": "Point", "coordinates": [30.935998, 31.109004]}}, {"type": "Feature", "properties": {"name": "Dikhil", "featurecla": "Admin-1 capital", "scalerank": 10, "min_zoom": 9, "pop_max": 12043}, "geometry": {"type": "Point", "coordinates": [42.372001, 11.104002]}}, {"type": "Feature", "properties": {"name": "Tadjoura", "featurecla": "Admin-1 capital", "scalerank": 10, "min_zoom": 9, "pop_max": 22193}, "geometry": {"type": "Point", "coordinates": [42.900003, 11.783304]}}, {"type": "Feature", "properties": {"name": "Hawalli", "featurecla": "Admin-1 capital", "scalerank": 10, "min_zoom": 9, "pop_max": 164212}, "geometry": {"type": "Point", "coordinates": [47.999998, 29.33334]}}, {"type": "Feature", "properties": {"name": "B'abda", "featurecla": "Admin-1 capital", "scalerank": 10, "min_zoom": 9, "pop_max": 9000}, "geometry": {"type": "Point", "coordinates": [35.533296, 33.833304]}}, {"type": "Feature", "properties": {"name": "Ramla", "featurecla": "Admin-1 capital", "scalerank": 10, "min_zoom": 8, "pop_max": 63860}, "geometry": {"type": "Point", "coordinates": [34.866703, 31.9167]}}, {"type": "Feature", "properties": {"name": "Nabatiye et Tahta", "featurecla": "Admin-1 capital", "scalerank": 10, "min_zoom": 9, "pop_max": 80000}, "geometry": {"type": "Point", "coordinates": [35.450002, 33.383304]}}, {"type": "Feature", "properties": {"name": "Artashat", "featurecla": "Admin-1 capital", "scalerank": 10, "min_zoom": 9, "pop_max": 20562}, "geometry": {"type": "Point", "coordinates": [44.550556, 39.953889]}}, {"type": "Feature", "properties": {"name": "Yeghegnadzor", "featurecla": "Admin-1 capital", "scalerank": 10, "min_zoom": 9, "pop_max": 8200}, "geometry": {"type": "Point", "coordinates": [45.333333, 39.761111]}}, {"type": "Feature", "properties": {"name": "Larnaka", "featurecla": "Admin-1 capital", "scalerank": 10, "min_zoom": 7, "pop_max": 48947}, "geometry": {"type": "Point", "coordinates": [33.635998, 34.917003]}}, {"type": "Feature", "properties": {"name": "Paphos", "featurecla": "Admin-1 capital", "scalerank": 10, "min_zoom": 7, "pop_max": 35961}, "geometry": {"type": "Point", "coordinates": [32.422457, 34.755915]}}, {"type": "Feature", "properties": {"name": "Ceerigaabo", "featurecla": "Admin-1 capital", "scalerank": 10, "min_zoom": 9, "pop_max": 180000}, "geometry": {"type": "Point", "coordinates": [47.333305, 10.583298]}}, {"type": "Feature", "properties": {"name": "Ramallah", "featurecla": "Admin-0 region capital", "scalerank": 10, "min_zoom": 9, "pop_max": 24599}, "geometry": {"type": "Point", "coordinates": [35.206209, 31.902945]}}, {"type": "Feature", "properties": {"name": "Kyrenia", "featurecla": "Admin-1 capital", "scalerank": 10, "min_zoom": 9, "pop_max": 26701}, "geometry": {"type": "Point", "coordinates": [33.333004, 35.325999]}}, {"type": "Feature", "properties": {"name": "Al Bayda", "featurecla": "Admin-1 capital", "scalerank": 9, "min_zoom": 8, "pop_max": 37821}, "geometry": {"type": "Point", "coordinates": [45.574003, 13.978998]}}, {"type": "Feature", "properties": {"name": "'Ataq", "featurecla": "Admin-1 capital", "scalerank": 9, "min_zoom": 7, "pop_max": 37315}, "geometry": {"type": "Point", "coordinates": [46.800001, 14.550003]}}, {"type": "Feature", "properties": {"name": "Marib", "featurecla": "Admin-1 capital", "scalerank": 9, "min_zoom": 8, "pop_max": 16794}, "geometry": {"type": "Point", "coordinates": [45.333999, 15.420996]}}, {"type": "Feature", "properties": {"name": "Sakakah", "featurecla": "Admin-1 capital", "scalerank": 9, "min_zoom": 8, "pop_max": 128332}, "geometry": {"type": "Point", "coordinates": [40.133305, 29.999997]}}, {"type": "Feature", "properties": {"name": "Duhok", "featurecla": "Admin-1 capital", "scalerank": 9, "min_zoom": 6, "pop_max": 986000}, "geometry": {"type": "Point", "coordinates": [43.000003, 36.8667]}}, {"type": "Feature", "properties": {"name": "Samarra", "featurecla": "Admin-1 capital", "scalerank": 9, "min_zoom": 7, "pop_max": 158508}, "geometry": {"type": "Point", "coordinates": [43.875001, 34.193997]}}, {"type": "Feature", "properties": {"name": "Yasuj", "featurecla": "Admin-1 capital", "scalerank": 9, "min_zoom": 7, "pop_max": 96786}, "geometry": {"type": "Point", "coordinates": [51.594004, 30.659004]}}, {"type": "Feature", "properties": {"name": "Shahrekord", "featurecla": "Admin-1 capital", "scalerank": 9, "min_zoom": 6, "pop_max": 129153}, "geometry": {"type": "Point", "coordinates": [50.853997, 32.320998]}}, {"type": "Feature", "properties": {"name": "Latakia", "featurecla": "Admin-1 capital", "scalerank": 8, "min_zoom": 6, "pop_max": 539147}, "geometry": {"type": "Point", "coordinates": [35.779976, 35.539987]}}, {"type": "Feature", "properties": {"name": "Madinat ath Thawrah", "featurecla": "Populated place", "scalerank": 8, "min_zoom": 7, "pop_max": 87880}, "geometry": {"type": "Point", "coordinates": [38.548076, 35.836661]}}, {"type": "Feature", "properties": {"name": "Izaz", "featurecla": "Populated place", "scalerank": 8, "min_zoom": 7, "pop_max": 31534}, "geometry": {"type": "Point", "coordinates": [37.044085, 36.588786]}}, {"type": "Feature", "properties": {"name": "Manbij", "featurecla": "Populated place", "scalerank": 8, "min_zoom": 7, "pop_max": 120169}, "geometry": {"type": "Point", "coordinates": [37.956329, 36.526645]}}, {"type": "Feature", "properties": {"name": "Idlib", "featurecla": "Admin-1 capital", "scalerank": 8, "min_zoom": 7, "pop_max": 128840}, "geometry": {"type": "Point", "coordinates": [36.631655, 35.929705]}}, {"type": "Feature", "properties": {"name": "Al Qamishli", "featurecla": "Populated place", "scalerank": 8, "min_zoom": 7, "pop_max": 104107}, "geometry": {"type": "Point", "coordinates": [41.229979, 37.030025]}}, {"type": "Feature", "properties": {"name": "Al Hasakah", "featurecla": "Admin-1 capital", "scalerank": 8, "min_zoom": 6, "pop_max": 128100}, "geometry": {"type": "Point", "coordinates": [40.750008, 36.483289]}}, {"type": "Feature", "properties": {"name": "Douma", "featurecla": "Populated place", "scalerank": 8, "min_zoom": 7, "pop_max": 496145}, "geometry": {"type": "Point", "coordinates": [36.39999, 33.583336]}}, {"type": "Feature", "properties": {"name": "Dhamar", "featurecla": "Admin-1 capital", "scalerank": 8, "min_zoom": 7, "pop_max": 191259}, "geometry": {"type": "Point", "coordinates": [44.387461, 14.557469]}}, {"type": "Feature", "properties": {"name": "Ibb", "featurecla": "Admin-1 capital", "scalerank": 8, "min_zoom": 7, "pop_max": 234837}, "geometry": {"type": "Point", "coordinates": [44.170885, 13.975851]}}, {"type": "Feature", "properties": {"name": "Ash Shihr", "featurecla": "Populated place", "scalerank": 8, "min_zoom": 7, "pop_max": 54274}, "geometry": {"type": "Point", "coordinates": [49.609158, 14.759317]}}, {"type": "Feature", "properties": {"name": "Umm al Qaywayn", "featurecla": "Admin-1 capital", "scalerank": 8, "min_zoom": 8, "pop_max": 44411}, "geometry": {"type": "Point", "coordinates": [55.553343, 25.565273]}}, {"type": "Feature", "properties": {"name": "Sharjah", "featurecla": "Admin-1 capital", "scalerank": 8, "min_zoom": 7.7, "pop_max": 1103027}, "geometry": {"type": "Point", "coordinates": [55.406478, 25.371383]}}, {"type": "Feature", "properties": {"name": "Celeken", "featurecla": "Populated place", "scalerank": 8, "min_zoom": 7, "pop_max": 1206}, "geometry": {"type": "Point", "coordinates": [53.122591, 39.436155]}}, {"type": "Feature", "properties": {"name": "Isparta", "featurecla": "Admin-1 capital", "scalerank": 8, "min_zoom": 7, "pop_max": 172334}, "geometry": {"type": "Point", "coordinates": [30.529961, 37.76998]}}, {"type": "Feature", "properties": {"name": "Kütahya", "featurecla": "Admin-1 capital", "scalerank": 8, "min_zoom": 7, "pop_max": 185008}, "geometry": {"type": "Point", "coordinates": [29.929997, 39.420009]}}, {"type": "Feature", "properties": {"name": "Muğla", "featurecla": "Admin-1 capital", "scalerank": 8, "min_zoom": 6.1, "pop_max": 48183}, "geometry": {"type": "Point", "coordinates": [28.363891, 37.21637]}}, {"type": "Feature", "properties": {"name": "Elâzığ", "featurecla": "Admin-1 capital", "scalerank": 8, "min_zoom": 6, "pop_max": 271492}, "geometry": {"type": "Point", "coordinates": [39.229998, 38.679976]}}, {"type": "Feature", "properties": {"name": "Kahramanmaraş", "featurecla": "Admin-1 capital", "scalerank": 8, "min_zoom": 7, "pop_max": 376045}, "geometry": {"type": "Point", "coordinates": [36.945021, 37.60999]}}, {"type": "Feature", "properties": {"name": "Icel", "featurecla": "Admin-1 capital", "scalerank": 8, "min_zoom": 6, "pop_max": 616990}, "geometry": {"type": "Point", "coordinates": [34.619995, 36.799988]}}, {"type": "Feature", "properties": {"name": "Tatvan", "featurecla": "Populated place", "scalerank": 8, "min_zoom": 6, "pop_max": 73222}, "geometry": {"type": "Point", "coordinates": [42.281595, 38.506576]}}, {"type": "Feature", "properties": {"name": "Polatlı", "featurecla": "Populated place", "scalerank": 8, "min_zoom": 7, "pop_max": 93262}, "geometry": {"type": "Point", "coordinates": [32.147226, 39.584159]}}, {"type": "Feature", "properties": {"name": "Nusaybin", "featurecla": "Populated place", "scalerank": 8, "min_zoom": 6, "pop_max": 152668}, "geometry": {"type": "Point", "coordinates": [41.218352, 37.074984]}}, {"type": "Feature", "properties": {"name": "Hakkâri", "featurecla": "Admin-1 capital", "scalerank": 8, "min_zoom": 7, "pop_max": 77699}, "geometry": {"type": "Point", "coordinates": [43.740834, 37.574436]}}, {"type": "Feature", "properties": {"name": "Yanbu al Bahr", "featurecla": "Populated place", "scalerank": 8, "min_zoom": 6.1, "pop_max": 267590}, "geometry": {"type": "Point", "coordinates": [38.049295, 24.094277]}}, {"type": "Feature", "properties": {"name": "Dawmat al Jandal", "featurecla": "Populated place", "scalerank": 8, "min_zoom": 7, "pop_max": 22583}, "geometry": {"type": "Point", "coordinates": [39.866393, 29.815298]}}, {"type": "Feature", "properties": {"name": "Qal at Bishah", "featurecla": "Populated place", "scalerank": 8, "min_zoom": 6.1, "pop_max": 88291}, "geometry": {"type": "Point", "coordinates": [42.598681, 20.008687]}}, {"type": "Feature", "properties": {"name": "At Taif", "featurecla": "Populated place", "scalerank": 8, "min_zoom": 7, "pop_max": 657282}, "geometry": {"type": "Point", "coordinates": [40.382279, 21.262228]}}, {"type": "Feature", "properties": {"name": "Najran", "featurecla": "Admin-1 capital", "scalerank": 8, "min_zoom": 7, "pop_max": 369609}, "geometry": {"type": "Point", "coordinates": [44.131559, 17.50654]}}, {"type": "Feature", "properties": {"name": "Al Quwayiyah", "featurecla": "Populated place", "scalerank": 8, "min_zoom": 7, "pop_max": 8712}, "geometry": {"type": "Point", "coordinates": [45.280636, 24.07371]}}, {"type": "Feature", "properties": {"name": "Al Hillah", "featurecla": "Populated place", "scalerank": 8, "min_zoom": 7, "pop_max": 594605}, "geometry": {"type": "Point", "coordinates": [46.75636, 23.489456]}}, {"type": "Feature", "properties": {"name": "Al Mubarraz", "featurecla": "Populated place", "scalerank": 8, "min_zoom": 7, "pop_max": 298562}, "geometry": {"type": "Point", "coordinates": [49.565905, 25.429054]}}, {"type": "Feature", "properties": {"name": "Al-Qatif", "featurecla": "Populated place", "scalerank": 8, "min_zoom": 7, "pop_max": 368892}, "geometry": {"type": "Point", "coordinates": [50.01151, 26.519633]}}, {"type": "Feature", "properties": {"name": "Az Zahran", "featurecla": "Populated place", "scalerank": 8, "min_zoom": 7, "pop_max": 97446}, "geometry": {"type": "Point", "coordinates": [50.158323, 26.29143]}}, {"type": "Feature", "properties": {"name": "Al Ahmadi", "featurecla": "Admin-1 capital", "scalerank": 8, "min_zoom": 7, "pop_max": 68763}, "geometry": {"type": "Point", "coordinates": [48.083773, 29.076945]}}, {"type": "Feature", "properties": {"name": "Al Jahra", "featurecla": "Admin-1 capital", "scalerank": 8, "min_zoom": 7, "pop_max": 194193}, "geometry": {"type": "Point", "coordinates": [47.658062, 29.337471]}}, {"type": "Feature", "properties": {"name": "Saida", "featurecla": "Admin-1 capital", "scalerank": 8, "min_zoom": 7, "pop_max": 173894}, "geometry": {"type": "Point", "coordinates": [35.368787, 33.563028]}}, {"type": "Feature", "properties": {"name": "Irbid", "featurecla": "Admin-1 capital", "scalerank": 8, "min_zoom": 6.1, "pop_max": 650000}, "geometry": {"type": "Point", "coordinates": [35.849998, 32.549989]}}, {"type": "Feature", "properties": {"name": "As Salt", "featurecla": "Admin-1 capital", "scalerank": 8, "min_zoom": 8, "pop_max": 140689}, "geometry": {"type": "Point", "coordinates": [35.727214, 32.039193]}}, {"type": "Feature", "properties": {"name": "Az Zarqa", "featurecla": "Admin-1 capital", "scalerank": 8, "min_zoom": 8, "pop_max": 894691}, "geometry": {"type": "Point", "coordinates": [36.100008, 32.069992]}}, {"type": "Feature", "properties": {"name": "Beer Sheva", "featurecla": "Admin-1 capital", "scalerank": 8, "min_zoom": 7, "pop_max": 206408}, "geometry": {"type": "Point", "coordinates": [34.830008, 31.250016]}}, {"type": "Feature", "properties": {"name": "Marv Dasht", "featurecla": "Populated place", "scalerank": 8, "min_zoom": 7, "pop_max": 125000}, "geometry": {"type": "Point", "coordinates": [52.821468, 29.801448]}}, {"type": "Feature", "properties": {"name": "Shahrud", "featurecla": "Populated place", "scalerank": 8, "min_zoom": 7, "pop_max": 131889}, "geometry": {"type": "Point", "coordinates": [54.962888, 36.422879]}}, {"type": "Feature", "properties": {"name": "Varamin", "featurecla": "Populated place", "scalerank": 8, "min_zoom": 6, "pop_max": 179603}, "geometry": {"type": "Point", "coordinates": [51.646604, 35.31659]}}, {"type": "Feature", "properties": {"name": "Masjed Soleyman", "featurecla": "Populated place", "scalerank": 8, "min_zoom": 6, "pop_max": 153663}, "geometry": {"type": "Point", "coordinates": [49.299926, 31.979998]}}, {"type": "Feature", "properties": {"name": "Borujerd", "featurecla": "Populated place", "scalerank": 8, "min_zoom": 7, "pop_max": 251958}, "geometry": {"type": "Point", "coordinates": [48.800008, 33.919957]}}, {"type": "Feature", "properties": {"name": "Az Aubayr", "featurecla": "Populated place", "scalerank": 8, "min_zoom": 7, "pop_max": 262219}, "geometry": {"type": "Point", "coordinates": [47.707982, 30.389164]}}, {"type": "Feature", "properties": {"name": "Ad Diwaniyah", "featurecla": "Admin-1 capital", "scalerank": 8, "min_zoom": 6.1, "pop_max": 358408}, "geometry": {"type": "Point", "coordinates": [44.923966, 31.988938]}}, {"type": "Feature", "properties": {"name": "Ash Shatrah", "featurecla": "Populated place", "scalerank": 8, "min_zoom": 6, "pop_max": 161949}, "geometry": {"type": "Point", "coordinates": [46.177222, 31.417525]}}, {"type": "Feature", "properties": {"name": "Malayer", "featurecla": "Populated place", "scalerank": 8, "min_zoom": 6, "pop_max": 176573}, "geometry": {"type": "Point", "coordinates": [48.849979, 34.319984]}}, {"type": "Feature", "properties": {"name": "Zanjan", "featurecla": "Admin-1 capital", "scalerank": 8, "min_zoom": 6.1, "pop_max": 357471}, "geometry": {"type": "Point", "coordinates": [48.500026, 36.670021]}}, {"type": "Feature", "properties": {"name": "Urmia", "featurecla": "Admin-1 capital", "scalerank": 8, "min_zoom": 6, "pop_max": 577307}, "geometry": {"type": "Point", "coordinates": [44.999982, 37.529995]}}, {"type": "Feature", "properties": {"name": "Ahar", "featurecla": "Populated place", "scalerank": 8, "min_zoom": 7, "pop_max": 103639}, "geometry": {"type": "Point", "coordinates": [47.062905, 38.482908]}}, {"type": "Feature", "properties": {"name": "Sanandaj", "featurecla": "Admin-1 capital", "scalerank": 8, "min_zoom": 6, "pop_max": 349176}, "geometry": {"type": "Point", "coordinates": [47.020013, 35.300002]}}, {"type": "Feature", "properties": {"name": "Mandali", "featurecla": "Populated place", "scalerank": 8, "min_zoom": 7, "pop_max": 29785}, "geometry": {"type": "Point", "coordinates": [45.546357, 33.743611]}}, {"type": "Feature", "properties": {"name": "Sirjan", "featurecla": "Populated place", "scalerank": 8, "min_zoom": 6, "pop_max": 175000}, "geometry": {"type": "Point", "coordinates": [55.730024, 29.46997]}}, {"type": "Feature", "properties": {"name": "Ar Ramadi", "featurecla": "Admin-1 capital", "scalerank": 8, "min_zoom": 7, "pop_max": 295121}, "geometry": {"type": "Point", "coordinates": [43.299982, 33.420013]}}, {"type": "Feature", "properties": {"name": "Al Musayyib", "featurecla": "Populated place", "scalerank": 8, "min_zoom": 8, "pop_max": 76454}, "geometry": {"type": "Point", "coordinates": [44.289999, 32.778631]}}, {"type": "Feature", "properties": {"name": "Jabal Ali", "featurecla": "Populated place", "scalerank": 8, "min_zoom": 7, "pop_max": 80000}, "geometry": {"type": "Point", "coordinates": [55.01074, 24.976239]}}, {"type": "Feature", "properties": {"name": "Al Khalil", "featurecla": "Populated place", "scalerank": 8, "min_zoom": 7, "pop_max": 280321}, "geometry": {"type": "Point", "coordinates": [35.095573, 31.540593]}}, {"type": "Feature", "properties": {"name": "Famagusta", "featurecla": "Admin-1 capital", "scalerank": 8, "min_zoom": 7, "pop_max": 42526}, "geometry": {"type": "Point", "coordinates": [33.95001, 35.125025]}}, {"type": "Feature", "properties": {"name": "Tartus", "featurecla": "Admin-1 capital", "scalerank": 7, "min_zoom": 6.7, "pop_max": 162980}, "geometry": {"type": "Point", "coordinates": [35.886584, 34.884634]}}, {"type": "Feature", "properties": {"name": "Ar Raqqah", "featurecla": "Admin-1 capital", "scalerank": 7, "min_zoom": 6.1, "pop_max": 177636}, "geometry": {"type": "Point", "coordinates": [39.019985, 35.930377]}}, {"type": "Feature", "properties": {"name": "Hamah", "featurecla": "Admin-1 capital", "scalerank": 7, "min_zoom": 6.7, "pop_max": 460602}, "geometry": {"type": "Point", "coordinates": [36.729996, 35.150347]}}, {"type": "Feature", "properties": {"name": "Tadmur", "featurecla": "Populated place", "scalerank": 7, "min_zoom": 6.7, "pop_max": 55111}, "geometry": {"type": "Point", "coordinates": [38.283337, 34.550409]}}, {"type": "Feature", "properties": {"name": "Abu Kamal", "featurecla": "Populated place", "scalerank": 7, "min_zoom": 6.7, "pop_max": 80808}, "geometry": {"type": "Point", "coordinates": [40.918629, 34.450415]}}, {"type": "Feature", "properties": {"name": "Dayr az Zawr", "featurecla": "Admin-1 capital", "scalerank": 7, "min_zoom": 6.7, "pop_max": 309141}, "geometry": {"type": "Point", "coordinates": [40.129995, 35.330387]}}, {"type": "Feature", "properties": {"name": "As Suwayda", "featurecla": "Admin-1 capital", "scalerank": 7, "min_zoom": 7, "pop_max": 72248}, "geometry": {"type": "Point", "coordinates": [36.566595, 32.700419]}}, {"type": "Feature", "properties": {"name": "Ad Nabk", "featurecla": "Populated place", "scalerank": 7, "min_zoom": 6.7, "pop_max": 50178}, "geometry": {"type": "Point", "coordinates": [36.733303, 34.017031]}}, {"type": "Feature", "properties": {"name": "Ad Damazīn", "featurecla": "Admin-1 capital", "scalerank": 7, "min_zoom": 6.7, "pop_max": 186051}, "geometry": {"type": "Point", "coordinates": [34.349986, 11.770404]}}, {"type": "Feature", "properties": {"name": "Haiya", "featurecla": "Populated place", "scalerank": 7, "min_zoom": 6.7, "pop_max": 20000}, "geometry": {"type": "Point", "coordinates": [36.384177, 18.336231]}}, {"type": "Feature", "properties": {"name": "Zabīd", "featurecla": "Populated place", "scalerank": 7, "min_zoom": 6.1, "pop_max": 152504}, "geometry": {"type": "Point", "coordinates": [43.315537, 14.195088]}}, {"type": "Feature", "properties": {"name": "Hajjah", "featurecla": "Admin-1 capital", "scalerank": 7, "min_zoom": 6.7, "pop_max": 208287}, "geometry": {"type": "Point", "coordinates": [43.602134, 15.691741]}}, {"type": "Feature", "properties": {"name": "Lahij", "featurecla": "Admin-1 capital", "scalerank": 7, "min_zoom": 6.7, "pop_max": 66288}, "geometry": {"type": "Point", "coordinates": [44.883761, 13.058181]}}, {"type": "Feature", "properties": {"name": "Al Ghaydah", "featurecla": "Populated place", "scalerank": 7, "min_zoom": 6.7, "pop_max": 27404}, "geometry": {"type": "Point", "coordinates": [52.163782, 16.239408]}}, {"type": "Feature", "properties": {"name": "Rida", "featurecla": "Populated place", "scalerank": 7, "min_zoom": 6.7, "pop_max": 45233}, "geometry": {"type": "Point", "coordinates": [44.8341, 14.429493]}}, {"type": "Feature", "properties": {"name": "Hadiboh", "featurecla": "Populated place", "scalerank": 7, "min_zoom": 6.1, "pop_max": 11396}, "geometry": {"type": "Point", "coordinates": [54.023927, 12.651875]}}, {"type": "Feature", "properties": {"name": "Saywun", "featurecla": "Populated place", "scalerank": 7, "min_zoom": 6.7, "pop_max": 68747}, "geometry": {"type": "Point", "coordinates": [48.787347, 15.942992]}}, {"type": "Feature", "properties": {"name": "Ras al Khaymah", "featurecla": "Admin-1 capital", "scalerank": 7, "min_zoom": 6.1, "pop_max": 160849}, "geometry": {"type": "Point", "coordinates": [55.942776, 25.791538]}}, {"type": "Feature", "properties": {"name": "Al Ayn", "featurecla": "Populated place", "scalerank": 7, "min_zoom": 6.7, "pop_max": 408733}, "geometry": {"type": "Point", "coordinates": [55.739998, 24.230471]}}, {"type": "Feature", "properties": {"name": "Balkanabat", "featurecla": "Admin-1 capital", "scalerank": 7, "min_zoom": 6.7, "pop_max": 110827}, "geometry": {"type": "Point", "coordinates": [54.36494, 39.51238]}}, {"type": "Feature", "properties": {"name": "Melut", "featurecla": "Populated place", "scalerank": 7, "min_zoom": 6.7, "pop_max": 6407}, "geometry": {"type": "Point", "coordinates": [32.200039, 10.43369]}}, {"type": "Feature", "properties": {"name": "El Manaqil", "featurecla": "Admin-1 capital", "scalerank": 7, "min_zoom": 6.7, "pop_max": 151827}, "geometry": {"type": "Point", "coordinates": [32.979992, 14.250382]}}, {"type": "Feature", "properties": {"name": "Shendi", "featurecla": "Populated place", "scalerank": 7, "min_zoom": 6.1, "pop_max": 186611}, "geometry": {"type": "Point", "coordinates": [33.420017, 16.680492]}}, {"type": "Feature", "properties": {"name": "Berber", "featurecla": "Populated place", "scalerank": 7, "min_zoom": 6.7, "pop_max": 49556}, "geometry": {"type": "Point", "coordinates": [33.98329, 18.017026]}}, {"type": "Feature", "properties": {"name": "Kerma", "featurecla": "Populated place", "scalerank": 7, "min_zoom": 6.7, "pop_max": 3928}, "geometry": {"type": "Point", "coordinates": [30.416582, 19.633697]}}, {"type": "Feature", "properties": {"name": "Ed Dueim", "featurecla": "Populated place", "scalerank": 7, "min_zoom": 6.7, "pop_max": 87068}, "geometry": {"type": "Point", "coordinates": [32.299982, 13.990398]}}, {"type": "Feature", "properties": {"name": "Umm Ruwaba", "featurecla": "Populated place", "scalerank": 7, "min_zoom": 6.7, "pop_max": 55742}, "geometry": {"type": "Point", "coordinates": [31.199997, 12.910438]}}, {"type": "Feature", "properties": {"name": "Afyon", "featurecla": "Admin-1 capital", "scalerank": 7, "min_zoom": 6.1, "pop_max": 156992}, "geometry": {"type": "Point", "coordinates": [30.550011, 38.750385]}}, {"type": "Feature", "properties": {"name": "Denizli", "featurecla": "Admin-1 capital", "scalerank": 7, "min_zoom": 6.1, "pop_max": 372344}, "geometry": {"type": "Point", "coordinates": [29.080023, 37.770393]}}, {"type": "Feature", "properties": {"name": "Adıyaman", "featurecla": "Admin-1 capital", "scalerank": 7, "min_zoom": 6.1, "pop_max": 223744}, "geometry": {"type": "Point", "coordinates": [38.279927, 37.770393]}}, {"type": "Feature", "properties": {"name": "Malatya", "featurecla": "Admin-1 capital", "scalerank": 7, "min_zoom": 6.1, "pop_max": 461574}, "geometry": {"type": "Point", "coordinates": [38.300029, 38.370434]}}, {"type": "Feature", "properties": {"name": "Tarsus", "featurecla": "Populated place", "scalerank": 7, "min_zoom": 6.7, "pop_max": 894318}, "geometry": {"type": "Point", "coordinates": [34.879979, 36.920394]}}, {"type": "Feature", "properties": {"name": "Samandagi", "featurecla": "Populated place", "scalerank": 7, "min_zoom": 6.7, "pop_max": 93638}, "geometry": {"type": "Point", "coordinates": [35.9333, 36.117058]}}, {"type": "Feature", "properties": {"name": "İskenderun", "featurecla": "Populated place", "scalerank": 7, "min_zoom": 6.7, "pop_max": 297943}, "geometry": {"type": "Point", "coordinates": [36.17003, 36.580414]}}, {"type": "Feature", "properties": {"name": "Sivas", "featurecla": "Admin-1 capital", "scalerank": 7, "min_zoom": 6.1, "pop_max": 264022}, "geometry": {"type": "Point", "coordinates": [37.03499, 39.745415]}}, {"type": "Feature", "properties": {"name": "Erzurum", "featurecla": "Admin-1 capital", "scalerank": 7, "min_zoom": 6.1, "pop_max": 420691}, "geometry": {"type": "Point", "coordinates": [41.290027, 39.920392]}}, {"type": "Feature", "properties": {"name": "Erzincan", "featurecla": "Admin-1 capital", "scalerank": 7, "min_zoom": 6.1, "pop_max": 129407}, "geometry": {"type": "Point", "coordinates": [39.492773, 39.75265]}}, {"type": "Feature", "properties": {"name": "Ağrı", "featurecla": "Admin-1 capital", "scalerank": 7, "min_zoom": 6.7, "pop_max": 87854}, "geometry": {"type": "Point", "coordinates": [43.051315, 39.719835]}}, {"type": "Feature", "properties": {"name": "Diyarbakır", "featurecla": "Admin-1 capital", "scalerank": 7, "min_zoom": 6.1, "pop_max": 644763}, "geometry": {"type": "Point", "coordinates": [40.23004, 37.920436]}}, {"type": "Feature", "properties": {"name": "Muş", "featurecla": "Admin-1 capital", "scalerank": 7, "min_zoom": 6.7, "pop_max": 82536}, "geometry": {"type": "Point", "coordinates": [41.49694, 38.749016]}}, {"type": "Feature", "properties": {"name": "Ereğli", "featurecla": "Populated place", "scalerank": 7, "min_zoom": 6.1, "pop_max": 92117}, "geometry": {"type": "Point", "coordinates": [34.051658, 37.506275]}}, {"type": "Feature", "properties": {"name": "Karaman", "featurecla": "Admin-1 capital", "scalerank": 7, "min_zoom": 6.1, "pop_max": 120399}, "geometry": {"type": "Point", "coordinates": [33.215016, 37.18154]}}, {"type": "Feature", "properties": {"name": "Uşak", "featurecla": "Admin-1 capital", "scalerank": 7, "min_zoom": 6.7, "pop_max": 152862}, "geometry": {"type": "Point", "coordinates": [29.420002, 38.680364]}}, {"type": "Feature", "properties": {"name": "Kilis", "featurecla": "Admin-1 capital", "scalerank": 7, "min_zoom": 6.7, "pop_max": 82301}, "geometry": {"type": "Point", "coordinates": [37.119997, 36.720406]}}, {"type": "Feature", "properties": {"name": "Kırıkkale", "featurecla": "Populated place", "scalerank": 7, "min_zoom": 6.1, "pop_max": 211138}, "geometry": {"type": "Point", "coordinates": [33.529984, 39.85037]}}, {"type": "Feature", "properties": {"name": "Mardin", "featurecla": "Admin-1 capital", "scalerank": 7, "min_zoom": 6.1, "pop_max": 71373}, "geometry": {"type": "Point", "coordinates": [40.742722, 37.311507]}}, {"type": "Feature", "properties": {"name": "Batman", "featurecla": "Admin-1 capital", "scalerank": 7, "min_zoom": 6.7, "pop_max": 302074}, "geometry": {"type": "Point", "coordinates": [41.140011, 37.890412]}}, {"type": "Feature", "properties": {"name": "Van", "featurecla": "Admin-1 capital", "scalerank": 7, "min_zoom": 6.1, "pop_max": 371713}, "geometry": {"type": "Point", "coordinates": [43.399976, 38.49544]}}, {"type": "Feature", "properties": {"name": "Al Qunaytirah", "featurecla": "Admin-1 capital", "scalerank": 7, "min_zoom": 6.7, "pop_max": 4318}, "geometry": {"type": "Point", "coordinates": [35.823591, 33.125664]}}, {"type": "Feature", "properties": {"name": "En Nuhud", "featurecla": "Populated place", "scalerank": 7, "min_zoom": 6.1, "pop_max": 108008}, "geometry": {"type": "Point", "coordinates": [28.420012, 12.690426]}}, {"type": "Feature", "properties": {"name": "Buraydah", "featurecla": "Admin-1 capital", "scalerank": 7, "min_zoom": 6.1, "pop_max": 398581}, "geometry": {"type": "Point", "coordinates": [43.962836, 26.366387]}}, {"type": "Feature", "properties": {"name": "Hail", "featurecla": "Admin-1 capital", "scalerank": 7, "min_zoom": 6.1, "pop_max": 385257}, "geometry": {"type": "Point", "coordinates": [41.70008, 27.523577]}}, {"type": "Feature", "properties": {"name": "Arar", "featurecla": "Admin-1 capital", "scalerank": 7, "min_zoom": 6.1, "pop_max": 222016}, "geometry": {"type": "Point", "coordinates": [41.02069, 30.990006]}}, {"type": "Feature", "properties": {"name": "Rafha", "featurecla": "Populated place", "scalerank": 7, "min_zoom": 6.1, "pop_max": 64755}, "geometry": {"type": "Point", "coordinates": [43.494802, 29.620219]}}, {"type": "Feature", "properties": {"name": "Al Kharj", "featurecla": "Populated place", "scalerank": 7, "min_zoom": 6.1, "pop_max": 298428}, "geometry": {"type": "Point", "coordinates": [47.312037, 24.155566]}}, {"type": "Feature", "properties": {"name": "Dammam", "featurecla": "Admin-1 capital", "scalerank": 7, "min_zoom": 6.7, "pop_max": 2054710}, "geometry": {"type": "Point", "coordinates": [50.097724, 26.430138]}}, {"type": "Feature", "properties": {"name": "Hafar al Batin", "featurecla": "Populated place", "scalerank": 7, "min_zoom": 6.1, "pop_max": 249194}, "geometry": {"type": "Point", "coordinates": [45.960078, 28.433651]}}, {"type": "Feature", "properties": {"name": "Al Jubayl", "featurecla": "Populated place", "scalerank": 7, "min_zoom": 6.1, "pop_max": 237274}, "geometry": {"type": "Point", "coordinates": [49.646003, 27.004642]}}, {"type": "Feature", "properties": {"name": "Mirbat", "featurecla": "Populated place", "scalerank": 7, "min_zoom": 6.7, "pop_max": 1120}, "geometry": {"type": "Point", "coordinates": [54.691793, 16.992437]}}, {"type": "Feature", "properties": {"name": "Hurdiyo", "featurecla": "Populated place", "scalerank": 7, "min_zoom": 6.7, "pop_max": 176}, "geometry": {"type": "Point", "coordinates": [51.123329, 10.582027]}}, {"type": "Feature", "properties": {"name": "Caluula", "featurecla": "Populated place", "scalerank": 7, "min_zoom": 6.1, "pop_max": 513}, "geometry": {"type": "Point", "coordinates": [50.750018, 11.966956]}}, {"type": "Feature", "properties": {"name": "Zahlé", "featurecla": "Admin-1 capital", "scalerank": 7, "min_zoom": 6.7, "pop_max": 78145}, "geometry": {"type": "Point", "coordinates": [35.904154, 33.850116]}}, {"type": "Feature", "properties": {"name": "Al Aqabah", "featurecla": "Admin-1 capital", "scalerank": 7, "min_zoom": 6.1, "pop_max": 95048}, "geometry": {"type": "Point", "coordinates": [35.077693, 29.526995]}}, {"type": "Feature", "properties": {"name": "Al Karak", "featurecla": "Admin-1 capital", "scalerank": 7, "min_zoom": 6.7, "pop_max": 80062}, "geometry": {"type": "Point", "coordinates": [35.704735, 31.185111]}}, {"type": "Feature", "properties": {"name": "Tanta", "featurecla": "Admin-1 capital", "scalerank": 7, "min_zoom": 6.7, "pop_max": 404901}, "geometry": {"type": "Point", "coordinates": [31.000009, 30.790432]}}, {"type": "Feature", "properties": {"name": "Ismaïlia", "featurecla": "Admin-1 capital", "scalerank": 7, "min_zoom": 6.7, "pop_max": 656135}, "geometry": {"type": "Point", "coordinates": [32.259984, 30.590341]}}, {"type": "Feature", "properties": {"name": "El Mansura", "featurecla": "Admin-1 capital", "scalerank": 7, "min_zoom": 6.7, "pop_max": 600000}, "geometry": {"type": "Point", "coordinates": [31.380038, 31.050442]}}, {"type": "Feature", "properties": {"name": "Dumyat", "featurecla": "Admin-1 capital", "scalerank": 7, "min_zoom": 6.7, "pop_max": 299459}, "geometry": {"type": "Point", "coordinates": [31.820011, 31.420393]}}, {"type": "Feature", "properties": {"name": "El Alamein", "featurecla": "Populated place", "scalerank": 7, "min_zoom": 6.7, "pop_max": 7400}, "geometry": {"type": "Point", "coordinates": [28.949954, 30.817071]}}, {"type": "Feature", "properties": {"name": "El Daba", "featurecla": "Populated place", "scalerank": 7, "min_zoom": 6.7, "pop_max": 14212}, "geometry": {"type": "Point", "coordinates": [28.433293, 31.033776]}}, {"type": "Feature", "properties": {"name": "Damanhûr", "featurecla": "Admin-1 capital", "scalerank": 7, "min_zoom": 6.7, "pop_max": 500000}, "geometry": {"type": "Point", "coordinates": [30.470016, 31.050442]}}, {"type": "Feature", "properties": {"name": "Samalut", "featurecla": "Populated place", "scalerank": 7, "min_zoom": 6.1, "pop_max": 152097}, "geometry": {"type": "Point", "coordinates": [30.710001, 28.300429]}}, {"type": "Feature", "properties": {"name": "Mallawi", "featurecla": "Populated place", "scalerank": 7, "min_zoom": 6.7, "pop_max": 217365}, "geometry": {"type": "Point", "coordinates": [30.839967, 27.730412]}}, {"type": "Feature", "properties": {"name": "Beni Mazar", "featurecla": "Populated place", "scalerank": 7, "min_zoom": 6.7, "pop_max": 79553}, "geometry": {"type": "Point", "coordinates": [30.809995, 28.490392]}}, {"type": "Feature", "properties": {"name": "Beni Suef", "featurecla": "Admin-1 capital", "scalerank": 7, "min_zoom": 6.7, "pop_max": 489450}, "geometry": {"type": "Point", "coordinates": [31.09003, 29.080381]}}, {"type": "Feature", "properties": {"name": "Rashid", "featurecla": "Populated place", "scalerank": 7, "min_zoom": 6.7, "pop_max": 199509}, "geometry": {"type": "Point", "coordinates": [30.390021, 31.460391]}}, {"type": "Feature", "properties": {"name": "El Qasr", "featurecla": "Populated place", "scalerank": 7, "min_zoom": 6.1, "pop_max": 1716}, "geometry": {"type": "Point", "coordinates": [28.883291, 25.700433]}}, {"type": "Feature", "properties": {"name": "Isna", "featurecla": "Populated place", "scalerank": 7, "min_zoom": 6.7, "pop_max": 100000}, "geometry": {"type": "Point", "coordinates": [32.549941, 25.290406]}}, {"type": "Feature", "properties": {"name": "Qena", "featurecla": "Admin-1 capital", "scalerank": 7, "min_zoom": 6.7, "pop_max": 302027}, "geometry": {"type": "Point", "coordinates": [32.720008, 26.150457]}}, {"type": "Feature", "properties": {"name": "Girga", "featurecla": "Populated place", "scalerank": 7, "min_zoom": 6.7, "pop_max": 128250}, "geometry": {"type": "Point", "coordinates": [31.880007, 26.330368]}}, {"type": "Feature", "properties": {"name": "Sohag", "featurecla": "Admin-1 capital", "scalerank": 7, "min_zoom": 6.7, "pop_max": 600000}, "geometry": {"type": "Point", "coordinates": [31.700018, 26.550407]}}, {"type": "Feature", "properties": {"name": "Berenice", "featurecla": "Populated place", "scalerank": 7, "min_zoom": 6.1, "pop_max": 10}, "geometry": {"type": "Point", "coordinates": [35.48418, 23.945992]}}, {"type": "Feature", "properties": {"name": "Bur Safaga", "featurecla": "Populated place", "scalerank": 7, "min_zoom": 6.7, "pop_max": 32944}, "geometry": {"type": "Point", "coordinates": [33.933319, 26.733729]}}, {"type": "Feature", "properties": {"name": "El Tur", "featurecla": "Admin-1 capital", "scalerank": 7, "min_zoom": 6.1, "pop_max": 27628}, "geometry": {"type": "Point", "coordinates": [33.614797, 28.239389]}}, {"type": "Feature", "properties": {"name": "El Arish", "featurecla": "Admin-1 capital", "scalerank": 7, "min_zoom": 6.7, "pop_max": 178651}, "geometry": {"type": "Point", "coordinates": [33.800562, 31.124882]}}, {"type": "Feature", "properties": {"name": "Tessenei", "featurecla": "Populated place", "scalerank": 7, "min_zoom": 6.7, "pop_max": 15255}, "geometry": {"type": "Point", "coordinates": [36.657493, 15.110381]}}, {"type": "Feature", "properties": {"name": "Agordat", "featurecla": "Populated place", "scalerank": 7, "min_zoom": 6.7, "pop_max": 28600}, "geometry": {"type": "Point", "coordinates": [37.886669, 15.549037]}}, {"type": "Feature", "properties": {"name": "Massawa", "featurecla": "Admin-1 capital", "scalerank": 7, "min_zoom": 6.7, "pop_max": 142564}, "geometry": {"type": "Point", "coordinates": [39.450036, 15.610118]}}, {"type": "Feature", "properties": {"name": "Keren", "featurecla": "Admin-1 capital", "scalerank": 7, "min_zoom": 6.7, "pop_max": 150000}, "geometry": {"type": "Point", "coordinates": [38.454351, 15.781441]}}, {"type": "Feature", "properties": {"name": "Mendefera", "featurecla": "Admin-1 capital", "scalerank": 7, "min_zoom": 6.7, "pop_max": 257390}, "geometry": {"type": "Point", "coordinates": [38.816328, 14.885976]}}, {"type": "Feature", "properties": {"name": "Ali Sabih", "featurecla": "Admin-1 capital", "scalerank": 7, "min_zoom": 6.7, "pop_max": 40074}, "geometry": {"type": "Point", "coordinates": [42.712524, 11.15623]}}, {"type": "Feature", "properties": {"name": "Obock", "featurecla": "Admin-1 capital", "scalerank": 7, "min_zoom": 6.7, "pop_max": 17776}, "geometry": {"type": "Point", "coordinates": [43.285564, 11.973441]}}, {"type": "Feature", "properties": {"name": "Rodos", "featurecla": "Admin-1 capital", "scalerank": 7, "min_zoom": 6.1, "pop_max": 56969}, "geometry": {"type": "Point", "coordinates": [28.222504, 36.441224]}}, {"type": "Feature", "properties": {"name": "Zakho", "featurecla": "Populated place", "scalerank": 7, "min_zoom": 6.7, "pop_max": 134863}, "geometry": {"type": "Point", "coordinates": [42.687203, 37.14454]}}, {"type": "Feature", "properties": {"name": "Tall Afar", "featurecla": "Populated place", "scalerank": 7, "min_zoom": 6.1, "pop_max": 144465}, "geometry": {"type": "Point", "coordinates": [42.44975, 36.375982]}}, {"type": "Feature", "properties": {"name": "Tikrit", "featurecla": "Populated place", "scalerank": 7, "min_zoom": 6.1, "pop_max": 56591}, "geometry": {"type": "Point", "coordinates": [43.676962, 34.597047]}}, {"type": "Feature", "properties": {"name": "Haifa", "featurecla": "Admin-1 capital", "scalerank": 7, "min_zoom": 6.1, "pop_max": 1011000}, "geometry": {"type": "Point", "coordinates": [34.978079, 32.822357]}}, {"type": "Feature", "properties": {"name": "Nazareth", "featurecla": "Admin-1 capital", "scalerank": 7, "min_zoom": 7, "pop_max": 151459}, "geometry": {"type": "Point", "coordinates": [35.295509, 32.703984]}}, {"type": "Feature", "properties": {"name": "Karbala", "featurecla": "Admin-1 capital", "scalerank": 7, "min_zoom": 6.1, "pop_max": 510692}, "geometry": {"type": "Point", "coordinates": [44.024486, 32.61492]}}, {"type": "Feature", "properties": {"name": "Bati", "featurecla": "Populated place", "scalerank": 7, "min_zoom": 6.7, "pop_max": 19260}, "geometry": {"type": "Point", "coordinates": [40.016565, 11.183748]}}, {"type": "Feature", "properties": {"name": "Adigrat", "featurecla": "Populated place", "scalerank": 7, "min_zoom": 6.7, "pop_max": 104021}, "geometry": {"type": "Point", "coordinates": [39.469983, 14.280432]}}, {"type": "Feature", "properties": {"name": "Aksum", "featurecla": "Populated place", "scalerank": 7, "min_zoom": 6.7, "pop_max": 47487}, "geometry": {"type": "Point", "coordinates": [38.720003, 14.130415]}}, {"type": "Feature", "properties": {"name": "Asosa", "featurecla": "Populated place", "scalerank": 7, "min_zoom": 6.7, "pop_max": 30512}, "geometry": {"type": "Point", "coordinates": [34.533334, 10.066994]}}, {"type": "Feature", "properties": {"name": "Qomsheh", "featurecla": "Populated place", "scalerank": 7, "min_zoom": 6.7, "pop_max": 118301}, "geometry": {"type": "Point", "coordinates": [51.859718, 32.011494]}}, {"type": "Feature", "properties": {"name": "Kashan", "featurecla": "Populated place", "scalerank": 7, "min_zoom": 6.1, "pop_max": 250000}, "geometry": {"type": "Point", "coordinates": [51.579993, 33.980418]}}, {"type": "Feature", "properties": {"name": "Khomeini Shahr", "featurecla": "Populated place", "scalerank": 7, "min_zoom": 6.7, "pop_max": 437138}, "geometry": {"type": "Point", "coordinates": [51.469974, 32.700419]}}, {"type": "Feature", "properties": {"name": "Fasa", "featurecla": "Populated place", "scalerank": 7, "min_zoom": 6.1, "pop_max": 124458}, "geometry": {"type": "Point", "coordinates": [53.671494, 28.971835]}}, {"type": "Feature", "properties": {"name": "Gonbad-e Kavus", "featurecla": "Populated place", "scalerank": 7, "min_zoom": 6.7, "pop_max": 159982}, "geometry": {"type": "Point", "coordinates": [55.171454, 37.251821]}}, {"type": "Feature", "properties": {"name": "Gorgan", "featurecla": "Admin-1 capital", "scalerank": 7, "min_zoom": 6.1, "pop_max": 281023}, "geometry": {"type": "Point", "coordinates": [54.480023, 36.830348]}}, {"type": "Feature", "properties": {"name": "Amol", "featurecla": "Populated place", "scalerank": 7, "min_zoom": 6.1, "pop_max": 221650}, "geometry": {"type": "Point", "coordinates": [52.363305, 36.471325]}}, {"type": "Feature", "properties": {"name": "Sari", "featurecla": "Admin-1 capital", "scalerank": 7, "min_zoom": 6.7, "pop_max": 271467}, "geometry": {"type": "Point", "coordinates": [53.100004, 36.55039]}}, {"type": "Feature", "properties": {"name": "Semnan", "featurecla": "Admin-1 capital", "scalerank": 7, "min_zoom": 6.7, "pop_max": 124826}, "geometry": {"type": "Point", "coordinates": [53.374302, 35.554792]}}, {"type": "Feature", "properties": {"name": "Karaj", "featurecla": "Populated place", "scalerank": 7, "min_zoom": 6.1, "pop_max": 1423000}, "geometry": {"type": "Point", "coordinates": [50.968059, 35.802305]}}, {"type": "Feature", "properties": {"name": "Behbehan", "featurecla": "Populated place", "scalerank": 7, "min_zoom": 6.7, "pop_max": 85707}, "geometry": {"type": "Point", "coordinates": [50.261469, 30.581814]}}, {"type": "Feature", "properties": {"name": "Dezful", "featurecla": "Populated place", "scalerank": 7, "min_zoom": 6.1, "pop_max": 315482}, "geometry": {"type": "Point", "coordinates": [48.470002, 32.380387]}}, {"type": "Feature", "properties": {"name": "Khorramabad", "featurecla": "Admin-1 capital", "scalerank": 7, "min_zoom": 6.7, "pop_max": 375198}, "geometry": {"type": "Point", "coordinates": [48.35001, 33.480423]}}, {"type": "Feature", "properties": {"name": "Ilam", "featurecla": "Admin-1 capital", "scalerank": 7, "min_zoom": 6.7, "pop_max": 152894}, "geometry": {"type": "Point", "coordinates": [46.430024, 33.630414]}}, {"type": "Feature", "properties": {"name": "As Samawah", "featurecla": "Admin-1 capital", "scalerank": 7, "min_zoom": 6.1, "pop_max": 174978}, "geometry": {"type": "Point", "coordinates": [45.280275, 31.309858]}}, {"type": "Feature", "properties": {"name": "An Nasiriyah", "featurecla": "Admin-1 capital", "scalerank": 7, "min_zoom": 6.1, "pop_max": 451547}, "geometry": {"type": "Point", "coordinates": [46.267553, 31.042949]}}, {"type": "Feature", "properties": {"name": "Al Amarah", "featurecla": "Admin-1 capital", "scalerank": 7, "min_zoom": 6.7, "pop_max": 345007}, "geometry": {"type": "Point", "coordinates": [47.151168, 31.841608]}}, {"type": "Feature", "properties": {"name": "Al Kut", "featurecla": "Admin-1 capital", "scalerank": 7, "min_zoom": 6.1, "pop_max": 321521}, "geometry": {"type": "Point", "coordinates": [45.83037, 32.490716]}}, {"type": "Feature", "properties": {"name": "Saveh", "featurecla": "Populated place", "scalerank": 7, "min_zoom": 6.1, "pop_max": 175533}, "geometry": {"type": "Point", "coordinates": [50.331439, 35.021827]}}, {"type": "Feature", "properties": {"name": "Arak", "featurecla": "Admin-1 capital", "scalerank": 7, "min_zoom": 6.7, "pop_max": 503647}, "geometry": {"type": "Point", "coordinates": [49.700005, 34.080412]}}, {"type": "Feature", "properties": {"name": "Mahabad", "featurecla": "Populated place", "scalerank": 7, "min_zoom": 6.1, "pop_max": 162434}, "geometry": {"type": "Point", "coordinates": [45.720041, 36.770377]}}, {"type": "Feature", "properties": {"name": "Khvoy", "featurecla": "Populated place", "scalerank": 7, "min_zoom": 6.1, "pop_max": 202728}, "geometry": {"type": "Point", "coordinates": [44.970009, 38.530399]}}, {"type": "Feature", "properties": {"name": "Maragheh", "featurecla": "Populated place", "scalerank": 7, "min_zoom": 6.1, "pop_max": 151385}, "geometry": {"type": "Point", "coordinates": [46.220011, 37.420389]}}, {"type": "Feature", "properties": {"name": "Qasr-e Shirin", "featurecla": "Populated place", "scalerank": 7, "min_zoom": 6.7, "pop_max": 11202}, "geometry": {"type": "Point", "coordinates": [45.577207, 34.512375]}}, {"type": "Feature", "properties": {"name": "Bijar", "featurecla": "Populated place", "scalerank": 7, "min_zoom": 6.7, "pop_max": 53871}, "geometry": {"type": "Point", "coordinates": [47.593674, 35.874075]}}, {"type": "Feature", "properties": {"name": "As Sulaymaniyah", "featurecla": "Admin-1 capital", "scalerank": 7, "min_zoom": 6.7, "pop_max": 723170}, "geometry": {"type": "Point", "coordinates": [45.43086, 35.561278]}}, {"type": "Feature", "properties": {"name": "Baqubah", "featurecla": "Admin-1 capital", "scalerank": 7, "min_zoom": 6.1, "pop_max": 299479}, "geometry": {"type": "Point", "coordinates": [44.657263, 33.747642]}}, {"type": "Feature", "properties": {"name": "Ar Rutbah", "featurecla": "Populated place", "scalerank": 7, "min_zoom": 6.1, "pop_max": 22370}, "geometry": {"type": "Point", "coordinates": [40.284455, 33.03846]}}, {"type": "Feature", "properties": {"name": "Al Fallujah", "featurecla": "Populated place", "scalerank": 7, "min_zoom": 6.1, "pop_max": 231819}, "geometry": {"type": "Point", "coordinates": [43.777266, 33.347666]}}, {"type": "Feature", "properties": {"name": "Al Hillah", "featurecla": "Admin-1 capital", "scalerank": 7, "min_zoom": 6.7, "pop_max": 594605}, "geometry": {"type": "Point", "coordinates": [44.421722, 32.472138]}}, {"type": "Feature", "properties": {"name": "Şirvan", "featurecla": "Populated place", "scalerank": 7, "min_zoom": 6.1, "pop_max": 70684}, "geometry": {"type": "Point", "coordinates": [48.920259, 39.932303]}}, {"type": "Feature", "properties": {"name": "Lankaran", "featurecla": "Populated place", "scalerank": 7, "min_zoom": 6.1, "pop_max": 60180}, "geometry": {"type": "Point", "coordinates": [48.851064, 38.754003]}}, {"type": "Feature", "properties": {"name": "Stepanakert", "featurecla": "Populated place", "scalerank": 7, "min_zoom": 6.1, "pop_max": 57473}, "geometry": {"type": "Point", "coordinates": [46.751968, 39.815643]}}, {"type": "Feature", "properties": {"name": "Kapan", "featurecla": "Admin-1 capital", "scalerank": 7, "min_zoom": 6.7, "pop_max": 42288}, "geometry": {"type": "Point", "coordinates": [46.414986, 39.201521]}}, {"type": "Feature", "properties": {"name": "Naxcivan", "featurecla": "Admin-1 capital", "scalerank": 7, "min_zoom": 6.1, "pop_max": 94788}, "geometry": {"type": "Point", "coordinates": [45.412205, 39.20922]}}, {"type": "Feature", "properties": {"name": "Lemosos", "featurecla": "Admin-1 capital", "scalerank": 7, "min_zoom": 6.1, "pop_max": 154000}, "geometry": {"type": "Point", "coordinates": [33.033322, 34.675414]}}, {"type": "Feature", "properties": {"name": "Maydh", "featurecla": "Populated place", "scalerank": 7, "min_zoom": 6.7, "pop_max": 30000}, "geometry": {"type": "Point", "coordinates": [47.097528, 10.980091]}}, {"type": "Feature", "properties": {"name": "Nablus", "featurecla": "Populated place", "scalerank": 7, "min_zoom": 6.7, "pop_max": 215981}, "geometry": {"type": "Point", "coordinates": [35.254427, 32.221482]}}, {"type": "Feature", "properties": {"name": "Şanlıurfa", "featurecla": "Admin-1 capital", "scalerank": 6, "min_zoom": 6, "pop_max": 449549}, "geometry": {"type": "Point", "coordinates": [38.794986, 37.169991]}}, {"type": "Feature", "properties": {"name": "Al Qunfudhah", "featurecla": "Populated place", "scalerank": 6, "min_zoom": 6, "pop_max": 157}, "geometry": {"type": "Point", "coordinates": [41.078877, 19.126364]}}, {"type": "Feature", "properties": {"name": "Hofuf", "featurecla": "Populated place", "scalerank": 6, "min_zoom": 6, "pop_max": 637389}, "geometry": {"type": "Point", "coordinates": [49.585593, 25.348749]}}, {"type": "Feature", "properties": {"name": "Salalah", "featurecla": "Populated place", "scalerank": 6, "min_zoom": 6, "pop_max": 203877}, "geometry": {"type": "Point", "coordinates": [54.085215, 17.025458]}}, {"type": "Feature", "properties": {"name": "Giza", "featurecla": "Populated place", "scalerank": 6, "min_zoom": 6, "pop_max": 2681863}, "geometry": {"type": "Point", "coordinates": [31.190024, 30.009989]}}, {"type": "Feature", "properties": {"name": "Irbil", "featurecla": "Admin-1 capital", "scalerank": 6, "min_zoom": 6, "pop_max": 926000}, "geometry": {"type": "Point", "coordinates": [44.006675, 36.18099]}}, {"type": "Feature", "properties": {"name": "Sadah", "featurecla": "Admin-1 capital", "scalerank": 6, "min_zoom": 6, "pop_max": 105542}, "geometry": {"type": "Point", "coordinates": [43.849768, 16.939779]}}, {"type": "Feature", "properties": {"name": "Al Hudaydah", "featurecla": "Admin-1 capital", "scalerank": 6, "min_zoom": 6, "pop_max": 780000}, "geometry": {"type": "Point", "coordinates": [42.951029, 14.799891]}}, {"type": "Feature", "properties": {"name": "Sayhut al Ghamirah", "featurecla": "Populated place", "scalerank": 6, "min_zoom": 6, "pop_max": 189}, "geometry": {"type": "Point", "coordinates": [51.24544, 15.210504]}}, {"type": "Feature", "properties": {"name": "Al Mukalla", "featurecla": "Admin-1 capital", "scalerank": 6, "min_zoom": 6, "pop_max": 258132}, "geometry": {"type": "Point", "coordinates": [49.125931, 14.541165]}}, {"type": "Feature", "properties": {"name": "Eskişehir", "featurecla": "Admin-1 capital", "scalerank": 6, "min_zoom": 6, "pop_max": 514869}, "geometry": {"type": "Point", "coordinates": [30.529961, 39.794999]}}, {"type": "Feature", "properties": {"name": "Antalya", "featurecla": "Admin-1 capital", "scalerank": 6, "min_zoom": 6, "pop_max": 783000}, "geometry": {"type": "Point", "coordinates": [30.69803, 36.891928]}}, {"type": "Feature", "properties": {"name": "Kayseri", "featurecla": "Admin-1 capital", "scalerank": 6, "min_zoom": 6, "pop_max": 592840}, "geometry": {"type": "Point", "coordinates": [35.49002, 38.73496]}}, {"type": "Feature", "properties": {"name": "Gaziantep", "featurecla": "Admin-1 capital", "scalerank": 6, "min_zoom": 6, "pop_max": 1044000}, "geometry": {"type": "Point", "coordinates": [37.383048, 37.07693]}}, {"type": "Feature", "properties": {"name": "Homs", "featurecla": "Populated place", "scalerank": 6, "min_zoom": 6, "pop_max": 1005000}, "geometry": {"type": "Point", "coordinates": [36.718076, 34.731905]}}, {"type": "Feature", "properties": {"name": "Tokar", "featurecla": "Populated place", "scalerank": 6, "min_zoom": 6, "pop_max": 73202}, "geometry": {"type": "Point", "coordinates": [37.733293, 18.433331]}}, {"type": "Feature", "properties": {"name": "Al Wajh", "featurecla": "Populated place", "scalerank": 6, "min_zoom": 6, "pop_max": 43237}, "geometry": {"type": "Point", "coordinates": [36.463552, 26.232416]}}, {"type": "Feature", "properties": {"name": "Medani", "featurecla": "Admin-1 capital", "scalerank": 6, "min_zoom": 6, "pop_max": 332714}, "geometry": {"type": "Point", "coordinates": [33.52001, 14.399959]}}, {"type": "Feature", "properties": {"name": "Gedaref", "featurecla": "Admin-1 capital", "scalerank": 6, "min_zoom": 6, "pop_max": 201282}, "geometry": {"type": "Point", "coordinates": [35.38, 14.039981]}}, {"type": "Feature", "properties": {"name": "Ad-Damir", "featurecla": "Admin-1 capital", "scalerank": 6, "min_zoom": 6, "pop_max": 103941}, "geometry": {"type": "Point", "coordinates": [33.959984, 17.589972]}}, {"type": "Feature", "properties": {"name": "Atbarah", "featurecla": "Populated place", "scalerank": 6, "min_zoom": 6, "pop_max": 168612}, "geometry": {"type": "Point", "coordinates": [33.979982, 17.70999]}}, {"type": "Feature", "properties": {"name": "Wadi Halfa", "featurecla": "Populated place", "scalerank": 6, "min_zoom": 6, "pop_max": 17121}, "geometry": {"type": "Point", "coordinates": [31.349962, 21.800025]}}, {"type": "Feature", "properties": {"name": "Merowe", "featurecla": "Populated place", "scalerank": 6, "min_zoom": 6, "pop_max": 10234}, "geometry": {"type": "Point", "coordinates": [31.816652, 18.483302]}}, {"type": "Feature", "properties": {"name": "Kosti", "featurecla": "Admin-1 capital", "scalerank": 6, "min_zoom": 6, "pop_max": 345068}, "geometry": {"type": "Point", "coordinates": [32.660011, 13.169983]}}, {"type": "Feature", "properties": {"name": "Sennar", "featurecla": "Populated place", "scalerank": 6, "min_zoom": 6, "pop_max": 130122}, "geometry": {"type": "Point", "coordinates": [33.600006, 13.54996]}}, {"type": "Feature", "properties": {"name": "Kadugli", "featurecla": "Admin-1 capital", "scalerank": 6, "min_zoom": 6, "pop_max": 176931}, "geometry": {"type": "Point", "coordinates": [29.700037, 11.00996]}}, {"type": "Feature", "properties": {"name": "Abha", "featurecla": "Admin-1 capital", "scalerank": 6, "min_zoom": 6, "pop_max": 210886}, "geometry": {"type": "Point", "coordinates": [42.500134, 18.230087]}}, {"type": "Feature", "properties": {"name": "Jizan", "featurecla": "Admin-1 capital", "scalerank": 6, "min_zoom": 6, "pop_max": 105198}, "geometry": {"type": "Point", "coordinates": [42.556565, 16.906551]}}, {"type": "Feature", "properties": {"name": "As Sulayyil", "featurecla": "Populated place", "scalerank": 6, "min_zoom": 6, "pop_max": 24097}, "geometry": {"type": "Point", "coordinates": [45.572246, 20.462251]}}, {"type": "Feature", "properties": {"name": "Boosaaso", "featurecla": "Admin-1 capital", "scalerank": 6, "min_zoom": 6, "pop_max": 46969}, "geometry": {"type": "Point", "coordinates": [49.179985, 11.280021]}}, {"type": "Feature", "properties": {"name": "El Minya", "featurecla": "Admin-1 capital", "scalerank": 6, "min_zoom": 6, "pop_max": 500000}, "geometry": {"type": "Point", "coordinates": [30.749999, 28.090003]}}, {"type": "Feature", "properties": {"name": "Kom Ombo", "featurecla": "Populated place", "scalerank": 6, "min_zoom": 6, "pop_max": 303962}, "geometry": {"type": "Point", "coordinates": [32.95002, 24.469991]}}, {"type": "Feature", "properties": {"name": "El Kharga", "featurecla": "Admin-1 capital", "scalerank": 6, "min_zoom": 6, "pop_max": 49991}, "geometry": {"type": "Point", "coordinates": [30.550011, 25.440009]}}, {"type": "Feature", "properties": {"name": "Hurghada", "featurecla": "Admin-1 capital", "scalerank": 6, "min_zoom": 6, "pop_max": 157204}, "geometry": {"type": "Point", "coordinates": [33.830017, 27.230003]}}, {"type": "Feature", "properties": {"name": "Ṭarābulus", "featurecla": "Admin-1 capital", "scalerank": 6, "min_zoom": 6, "pop_max": 530000}, "geometry": {"type": "Point", "coordinates": [35.831661, 34.438267]}}, {"type": "Feature", "properties": {"name": "Debre Markos", "featurecla": "Admin-1 capital", "scalerank": 6, "min_zoom": 6, "pop_max": 70758}, "geometry": {"type": "Point", "coordinates": [37.720013, 10.339975]}}, {"type": "Feature", "properties": {"name": "Dese", "featurecla": "Admin-1 capital", "scalerank": 6, "min_zoom": 6, "pop_max": 183802}, "geometry": {"type": "Point", "coordinates": [39.630025, 11.129978]}}, {"type": "Feature", "properties": {"name": "Bandar-e Bushehr", "featurecla": "Admin-1 capital", "scalerank": 6, "min_zoom": 6, "pop_max": 169060}, "geometry": {"type": "Point", "coordinates": [50.830013, 28.919978]}}, {"type": "Feature", "properties": {"name": "Abadan", "featurecla": "Populated place", "scalerank": 6, "min_zoom": 6, "pop_max": 370180}, "geometry": {"type": "Point", "coordinates": [48.279678, 30.330744]}}, {"type": "Feature", "properties": {"name": "Ardabil", "featurecla": "Admin-1 capital", "scalerank": 6, "min_zoom": 6, "pop_max": 414603}, "geometry": {"type": "Point", "coordinates": [48.300039, 38.250003]}}, {"type": "Feature", "properties": {"name": "Qom", "featurecla": "Admin-1 capital", "scalerank": 6, "min_zoom": 6, "pop_max": 973000}, "geometry": {"type": "Point", "coordinates": [50.94806, 34.651961]}}, {"type": "Feature", "properties": {"name": "Qazvin", "featurecla": "Admin-1 capital", "scalerank": 6, "min_zoom": 6, "pop_max": 464551}, "geometry": {"type": "Point", "coordinates": [49.999986, 36.27002]}}, {"type": "Feature", "properties": {"name": "Kermanshah", "featurecla": "Admin-1 capital", "scalerank": 6, "min_zoom": 6, "pop_max": 828313}, "geometry": {"type": "Point", "coordinates": [47.058065, 34.381952]}}, {"type": "Feature", "properties": {"name": "Rasht", "featurecla": "Admin-1 capital", "scalerank": 6, "min_zoom": 5.1, "pop_max": 594590}, "geometry": {"type": "Point", "coordinates": [49.629983, 37.299983]}}, {"type": "Feature", "properties": {"name": "Taizz", "featurecla": "Admin-1 capital", "scalerank": 4, "min_zoom": 5.1, "pop_max": 751000}, "geometry": {"type": "Point", "coordinates": [44.037474, 13.606398]}}, {"type": "Feature", "properties": {"name": "Konya", "featurecla": "Admin-1 capital", "scalerank": 4, "min_zoom": 5.6, "pop_max": 919000}, "geometry": {"type": "Point", "coordinates": [32.473064, 37.876958]}}, {"type": "Feature", "properties": {"name": "Adana", "featurecla": "Admin-1 capital", "scalerank": 4, "min_zoom": 5.1, "pop_max": 1293000}, "geometry": {"type": "Point", "coordinates": [35.318058, 36.996935]}}, {"type": "Feature", "properties": {"name": "Medina", "featurecla": "Admin-1 capital", "scalerank": 4, "min_zoom": 5.1, "pop_max": 1010000}, "geometry": {"type": "Point", "coordinates": [39.578057, 24.501935]}}, {"type": "Feature", "properties": {"name": "Tabuk", "featurecla": "Admin-1 capital", "scalerank": 4, "min_zoom": 5.6, "pop_max": 547957}, "geometry": {"type": "Point", "coordinates": [36.554967, 28.383835]}}, {"type": "Feature", "properties": {"name": "Omdurman", "featurecla": "Admin-1 capital", "scalerank": 4, "min_zoom": 5.6, "pop_max": 2395159}, "geometry": {"type": "Point", "coordinates": [32.480022, 15.616681]}}, {"type": "Feature", "properties": {"name": "Al-Ubayyid", "featurecla": "Admin-1 capital", "scalerank": 4, "min_zoom": 5.6, "pop_max": 393311}, "geometry": {"type": "Point", "coordinates": [30.216698, 13.18329]}}, {"type": "Feature", "properties": {"name": "Doha", "featurecla": "Admin-0 capital", "scalerank": 4, "min_zoom": 5.6, "pop_max": 1450000}, "geometry": {"type": "Point", "coordinates": [51.532968, 25.286556]}}, {"type": "Feature", "properties": {"name": "Suez", "featurecla": "Populated place", "scalerank": 4, "min_zoom": 5.6, "pop_max": 508335}, "geometry": {"type": "Point", "coordinates": [32.549941, 30.004976]}}, {"type": "Feature", "properties": {"name": "Bur Said", "featurecla": "Admin-1 capital", "scalerank": 4, "min_zoom": 5.6, "pop_max": 623864}, "geometry": {"type": "Point", "coordinates": [32.290008, 31.25999]}}, {"type": "Feature", "properties": {"name": "El Faiyum", "featurecla": "Admin-1 capital", "scalerank": 4, "min_zoom": 5.6, "pop_max": 316772}, "geometry": {"type": "Point", "coordinates": [30.839967, 29.310031]}}, {"type": "Feature", "properties": {"name": "Aswan", "featurecla": "Admin-1 capital", "scalerank": 4, "min_zoom": 5.6, "pop_max": 313442}, "geometry": {"type": "Point", "coordinates": [32.898911, 24.087508]}}, {"type": "Feature", "properties": {"name": "Asyut", "featurecla": "Admin-1 capital", "scalerank": 4, "min_zoom": 5.6, "pop_max": 420585}, "geometry": {"type": "Point", "coordinates": [31.179947, 27.18998]}}, {"type": "Feature", "properties": {"name": "Assab", "featurecla": "Admin-1 capital", "scalerank": 4, "min_zoom": 5.6, "pop_max": 105496}, "geometry": {"type": "Point", "coordinates": [42.729991, 13.010018]}}, {"type": "Feature", "properties": {"name": "Djibouti", "featurecla": "Admin-0 capital", "scalerank": 4, "min_zoom": 5.6, "pop_max": 923000}, "geometry": {"type": "Point", "coordinates": [43.148002, 11.595014]}}, {"type": "Feature", "properties": {"name": "Kirkuk", "featurecla": "Admin-1 capital", "scalerank": 4, "min_zoom": 5.1, "pop_max": 601433}, "geometry": {"type": "Point", "coordinates": [44.392267, 35.472239]}}, {"type": "Feature", "properties": {"name": "Mosul", "featurecla": "Admin-1 capital", "scalerank": 4, "min_zoom": 5.6, "pop_max": 1316000}, "geometry": {"type": "Point", "coordinates": [43.143059, 36.346948]}}, {"type": "Feature", "properties": {"name": "Najaf", "featurecla": "Admin-1 capital", "scalerank": 4, "min_zoom": 5.6, "pop_max": 665552}, "geometry": {"type": "Point", "coordinates": [44.335371, 32.000332]}}, {"type": "Feature", "properties": {"name": "Bahir Dar", "featurecla": "Populated place", "scalerank": 4, "min_zoom": 5.6, "pop_max": 206748}, "geometry": {"type": "Point", "coordinates": [37.383289, 11.600053]}}, {"type": "Feature", "properties": {"name": "Mekele", "featurecla": "Admin-1 capital", "scalerank": 4, "min_zoom": 5.6, "pop_max": 95856}, "geometry": {"type": "Point", "coordinates": [39.469983, 13.499989]}}, {"type": "Feature", "properties": {"name": "Yazd", "featurecla": "Admin-1 capital", "scalerank": 4, "min_zoom": 5.6, "pop_max": 477905}, "geometry": {"type": "Point", "coordinates": [54.370004, 31.920053]}}, {"type": "Feature", "properties": {"name": "Ahvaz", "featurecla": "Admin-1 capital", "scalerank": 4, "min_zoom": 5.1, "pop_max": 996000}, "geometry": {"type": "Point", "coordinates": [48.718067, 31.281934]}}, {"type": "Feature", "properties": {"name": "Basra", "featurecla": "Admin-1 capital", "scalerank": 4, "min_zoom": 5.1, "pop_max": 870000}, "geometry": {"type": "Point", "coordinates": [47.811611, 30.51547]}}, {"type": "Feature", "properties": {"name": "Hamadan", "featurecla": "Admin-1 capital", "scalerank": 4, "min_zoom": 5.6, "pop_max": 528256}, "geometry": {"type": "Point", "coordinates": [48.515013, 34.796027]}}, {"type": "Feature", "properties": {"name": "Tabriz", "featurecla": "Admin-1 capital", "scalerank": 4, "min_zoom": 5.1, "pop_max": 1413000}, "geometry": {"type": "Point", "coordinates": [46.2993, 38.088237]}}, {"type": "Feature", "properties": {"name": "Berbera", "featurecla": "Populated place", "scalerank": 4, "min_zoom": 5.6, "pop_max": 242344}, "geometry": {"type": "Point", "coordinates": [45.016415, 10.43555]}}, {"type": "Feature", "properties": {"name": "Gaza City", "featurecla": "Admin-0 region capital", "scalerank": 4, "min_zoom": 5.6, "pop_max": 505700}, "geometry": {"type": "Point", "coordinates": [34.445019, 31.529999]}}, {"type": "Feature", "properties": {"name": "Manama", "featurecla": "Admin-0 capital", "scalerank": 4, "min_zoom": 5.6, "pop_max": 563920}, "geometry": {"type": "Point", "coordinates": [50.583052, 26.236136]}}, {"type": "Feature", "properties": {"name": "Abu Dhabi", "featurecla": "Admin-0 capital", "scalerank": 3, "min_zoom": 5, "pop_max": 603492}, "geometry": {"type": "Point", "coordinates": [54.366593, 24.466684]}}, {"type": "Feature", "properties": {"name": "Aden", "featurecla": "Admin-1 capital", "scalerank": 3, "min_zoom": 5, "pop_max": 1000000}, "geometry": {"type": "Point", "coordinates": [45.00949, 12.779723]}}, {"type": "Feature", "properties": {"name": "Port Sudan", "featurecla": "Admin-1 capital", "scalerank": 3, "min_zoom": 5, "pop_max": 489725}, "geometry": {"type": "Point", "coordinates": [37.216426, 19.615791]}}, {"type": "Feature", "properties": {"name": "Dongola", "featurecla": "Admin-1 region capital", "scalerank": 3, "min_zoom": 5, "pop_max": 26404}, "geometry": {"type": "Point", "coordinates": [30.483297, 19.166594]}}, {"type": "Feature", "properties": {"name": "Kassala", "featurecla": "Admin-1 capital", "scalerank": 3, "min_zoom": 5, "pop_max": 401477}, "geometry": {"type": "Point", "coordinates": [36.390016, 15.459972]}}, {"type": "Feature", "properties": {"name": "Amman", "featurecla": "Admin-0 capital", "scalerank": 3, "min_zoom": 5, "pop_max": 1060000}, "geometry": {"type": "Point", "coordinates": [35.931354, 31.951971]}}, {"type": "Feature", "properties": {"name": "Luxor", "featurecla": "Populated place", "scalerank": 3, "min_zoom": 5, "pop_max": 609248}, "geometry": {"type": "Point", "coordinates": [32.650038, 25.700019]}}, {"type": "Feature", "properties": {"name": "Asmara", "featurecla": "Admin-0 capital", "scalerank": 3, "min_zoom": 5, "pop_max": 620802}, "geometry": {"type": "Point", "coordinates": [38.933324, 15.333339]}}, {"type": "Feature", "properties": {"name": "Beirut", "featurecla": "Admin-0 capital", "scalerank": 3, "min_zoom": 5, "pop_max": 1846000}, "geometry": {"type": "Point", "coordinates": [35.507762, 33.873921]}}, {"type": "Feature", "properties": {"name": "Gondar", "featurecla": "Admin-1 capital", "scalerank": 3, "min_zoom": 5, "pop_max": 156230}, "geometry": {"type": "Point", "coordinates": [37.460028, 12.610043]}}, {"type": "Feature", "properties": {"name": "Isfahan", "featurecla": "Admin-1 capital", "scalerank": 3, "min_zoom": 5, "pop_max": 1628000}, "geometry": {"type": "Point", "coordinates": [51.698092, 32.701951]}}, {"type": "Feature", "properties": {"name": "Shiraz", "featurecla": "Admin-1 capital", "scalerank": 3, "min_zoom": 5, "pop_max": 1240000}, "geometry": {"type": "Point", "coordinates": [52.568065, 29.631906]}}, {"type": "Feature", "properties": {"name": "Jerusalem", "featurecla": "Admin-0 capital", "scalerank": 3, "min_zoom": 3.7, "pop_max": 1029300}, "geometry": {"type": "Point", "coordinates": [35.206626, 31.778408]}}, {"type": "Feature", "properties": {"name": "Nicosia", "featurecla": "Admin-0 capital", "scalerank": 3, "min_zoom": 5, "pop_max": 224300}, "geometry": {"type": "Point", "coordinates": [33.366635, 35.166677]}}, {"type": "Feature", "properties": {"name": "Ankara", "featurecla": "Admin-0 capital", "scalerank": 2, "min_zoom": 4, "pop_max": 3716000}, "geometry": {"type": "Point", "coordinates": [32.862446, 39.929184]}}, {"type": "Feature", "properties": {"name": "Sanaa", "featurecla": "Admin-0 capital", "scalerank": 2, "min_zoom": 4, "pop_max": 2008000}, "geometry": {"type": "Point", "coordinates": [44.204648, 15.356679]}}, {"type": "Feature", "properties": {"name": "Aleppo", "featurecla": "Populated place", "scalerank": 2, "min_zoom": 4.7, "pop_max": 2738000}, "geometry": {"type": "Point", "coordinates": [37.168074, 36.231917]}}, {"type": "Feature", "properties": {"name": "Damascus", "featurecla": "Admin-0 capital", "scalerank": 2, "min_zoom": 4.7, "pop_max": 2466000}, "geometry": {"type": "Point", "coordinates": [36.29805, 33.50198]}}, {"type": "Feature", "properties": {"name": "Khartoum", "featurecla": "Admin-0 capital", "scalerank": 2, "min_zoom": 4, "pop_max": 4754000}, "geometry": {"type": "Point", "coordinates": [32.532233, 15.590024]}}, {"type": "Feature", "properties": {"name": "Jeddah", "featurecla": "Populated place", "scalerank": 2, "min_zoom": 4, "pop_max": 3012000}, "geometry": {"type": "Point", "coordinates": [39.217252, 21.518835]}}, {"type": "Feature", "properties": {"name": "Makkah", "featurecla": "Populated place", "scalerank": 2, "min_zoom": 3.7, "pop_max": 1385000}, "geometry": {"type": "Point", "coordinates": [39.818094, 21.431967]}}, {"type": "Feature", "properties": {"name": "Alexandria", "featurecla": "Populated place", "scalerank": 2, "min_zoom": 4, "pop_max": 4165000}, "geometry": {"type": "Point", "coordinates": [29.94805, 31.201965]}}, {"type": "Feature", "properties": {"name": "Kuwait City", "featurecla": "Admin-0 capital", "scalerank": 2, "min_zoom": 4, "pop_max": 2063000}, "geometry": {"type": "Point", "coordinates": [47.976355, 29.371664]}}, {"type": "Feature", "properties": {"name": "Tel Aviv", "featurecla": "Admin-0 capital alt", "scalerank": 2, "min_zoom": 4, "pop_max": 3112000}, "geometry": {"type": "Point", "coordinates": [34.768066, 32.081937]}}, {"type": "Feature", "properties": {"name": "Dubai", "featurecla": "Admin-1 capital", "scalerank": 1, "min_zoom": 3.7, "pop_max": 1379000}, "geometry": {"type": "Point", "coordinates": [55.286946, 25.214912]}}, {"type": "Feature", "properties": {"name": "Baghdad", "featurecla": "Admin-0 capital", "scalerank": 1, "min_zoom": 3.7, "pop_max": 5054000}, "geometry": {"type": "Point", "coordinates": [44.391923, 33.340594]}}, {"type": "Feature", "properties": {"name": "Tehran", "featurecla": "Admin-0 capital", "scalerank": 1, "min_zoom": 3, "pop_max": 7873000}, "geometry": {"type": "Point", "coordinates": [51.422398, 35.673889]}}, {"type": "Feature", "properties": {"name": "Riyadh", "featurecla": "Admin-0 capital", "scalerank": 0, "min_zoom": 3.7, "pop_max": 4465000}, "geometry": {"type": "Point", "coordinates": [46.720487, 24.634497]}}, {"type": "Feature", "properties": {"name": "Cairo", "featurecla": "Admin-0 capital", "scalerank": 0, "min_zoom": 1.7, "pop_max": 11893000}, "geometry": {"type": "Point", "coordinates": [31.248022, 30.051906]}}]}